"","facility_id","common_name","address","zip_code","owned_leased","dept_id_for_jurisdiction","jurisdiction","gross_sq_ft","longitude","latitude","geom"
"1",196,"Bret Harte Elementary","1035 Gilman Ave",94124,"Own",16,"School District (Sfusd)",79000,-122.389803669,37.718196864,"POINT (-122.389803669 37.71819686399999)"
"2",179,"Bernal Heights Branch Library","500 Cortland Ave",94110,"Own",48,"Public Library",8777,-122.416105231,37.738851284,"POINT (-122.41610523100002 37.73885128400002)"
"3",55,"3RD ST/FITZGERALD ST SFMTA Operator Bathroom","3rd St & Fitzgerald Ave",94124,"Own",42,"Municipal Transportation Agency",105,-122.395203578,37.722978663,"POINT (-122.39520357800001 37.72297866299999)"
"4",1348,"Wholesale Produce Market - Public Dock 2 Middle","2002 Jerrold Ave",94124,"Own",63,"Gsa - Real Estate Division",5200,-122.397364703,37.74329527,"POINT (-122.397364703 37.743295269999976)"
"5",1250,"Patricias Green Gardeners Shed","450 Octavia St",94102,"Own",49,"Recreation And Parks",52,-122.424442533,37.775910664,"POINT (-122.42444253299999 37.77591066399998)"
"6",782,"George Moscone Elementary","2576 Harrison St",94110,"Own",16,"School District (Sfusd)",45108,-122.412562229,37.756999357,"POINT (-122.412562229 37.756999356999984)"
"7",1983,"Pier 70 - Pier 68 - Shipwright Building -#108","590 20TH ST",94107,"Own",46,"Port",46638,-122.385952312,37.762030099,"POINT (-122.38595231199997 37.762030099000015)"
"8",858,"Helen Wills Clubhouse","1401 Broadway",94109,"Own",49,"Recreation And Parks",3082,-122.420279933,37.795768539,"POINT (-122.42027993300002 37.795768538999994)"
"9",774,"18th - Geary Parking Lot","421 18th Ave",94121,"Own",42,"Municipal Transportation Agency",10000,-122.477941734,37.779919816,"POINT (-122.47794173400001 37.77991981600002)"
"10",725,"Fire Station #42","2430 San Bruno Ave",94134,"Own",38,"Fire Department",9300,-122.405424996,37.731585212,"POINT (-122.40542499600002 37.73158521200003)"
"11",554,"Crocker Amazon Clubhouse","799 Moscow St",94112,"Own",49,"Recreation And Parks",912,-122.43191402,37.715184063,"POINT (-122.43191402000002 37.71518406299998)"
"12",1298,"Pier 96 - Storage","1000 Amador St",94124,"Own",46,"Port",1922,-122.377797369,37.743831172,"POINT (-122.377797369 37.743831172)"
"13",3293,"Alemany Market Food Stand #1","100 Alemany Blvd",94110,"Own",63,"Gsa - Real Estate Division",4200,-122.410124843,37.736018928,"POINT (-122.410124843 37.73601892800002)"
"14",110,"Alemany Market Admin Building","100 Alemany Blvd",94110,"Own",63,"Gsa - Real Estate Division",720,-122.409889931,37.735746387,"POINT (-122.40988993100001 37.735746387000006)"
"15",3294,"Alemany Market Food Stand #2","100 Alemany Blvd",94110,"Own",63,"Gsa - Real Estate Division",6800,-122.409984011,37.73586139,"POINT (-122.409984011 37.735861390000025)"
"16",3290,"Bowley St/Lincoln Blvd SFMTA Operator Restroom","Bowley St/Lincold Blvd",94129,"Own",42,"Municipal Transportation Agency",75,-122.481327372,37.792030717,"POINT (-122.48132737200001 37.79203071699999)"
"17",3019,"SWL 302 - Port Harbor Office","Pier 47",94133,"Own",46,"Port",760,-122.419,37.8085,"POINT (-122.41899999999998 37.80849999999998)"
"18",1200,"Ocean View Branch Library","345 Randolph St",94132,"Own",48,"Public Library",4794,-122.465970826,37.714137767,"POINT (-122.46597082599999 37.71413776700001)"
"19",3035,"SWL 302 Costal Marine Retail Space","398 Jefferson St",94133,"Own",46,"Port",3640,-122.418954114,37.807981199,"POINT (-122.41895411399997 37.80798119899998)"
"20",1985,"Pier 70 - Pier 68 - Substation #4 (bldg #58)","590 20TH ST",94107,"Own",46,"Port",820,-122.385952312,37.762030099,"POINT (-122.38595231199997 37.762030099000015)"
"21",1999,"Pier 70 - SWL 349 - Brass Foundry, Bldg. #115","420 22nd St",94107,"Own",46,"Port",17400,-122.38300092,37.760392021,"POINT (-122.38300091999997 37.76039202099997)"
"22",1325,"Portsmouth Square Parking Garage","733 Kearny St",94111,"Own",42,"Municipal Transportation Agency",222984,-122.405034379,37.794655248,"POINT (-122.40503437900003 37.794655248000026)"
"23",1596,"Silver Avenue Family Health Center","1525 Silver Ave",94134,"Own",72,"Public Health",22950,-122.406435881,37.732381645,"POINT (-122.406435881 37.732381644999975)"
"24",1971,"Pier 70 - Pier 68 - Equipment Building #36","590 20TH ST",94107,"Own",46,"Port",12050,-122.385952312,37.762030099,"POINT (-122.38595231199997 37.762030099000015)"
"25",1670,"Strybing Storage Shed","1199 09th Ave",94117,"Own",49,"Recreation And Parks",323,-122.4725295,37.7674776,"POINT (-122.47252950000001 37.76747760000001)"
"26",697,"Fire Station #15","1000 Ocean Ave",94112,"Own",38,"Fire Department",12138,-122.452926629,37.723488631,"POINT (-122.45292662899999 37.72348863100001)"
"27",754,"Francis Scott Key Elementary","1530 43rd Ave",94122,"Own",16,"School District (Sfusd)",52000,-122.501999531,37.758097706,"POINT (-122.50199953100002 37.758097706)"
"28",2047,"Library Support Services","190 09th St",94103,"Own",48,"Public Library",43182,-122.413692223,37.775011974,"POINT (-122.413692223 37.775011973999995)"
"29",3327,"49 South Van Ness Ave Building","49 South Van Ness Ave",94103,"Own",63,"Gsa - Real Estate Division",564045,-122.418572841,37.773797866,"POINT (-122.41857284100001 37.773797865999995)"
"30",881,"1650 Mission St Building","1650 Mission St",94103,"Own",63,"Gsa - Real Estate Division",218538,-122.419563153,37.771740544,"POINT (-122.41956315300001 37.77174054400001)"
"31",1223,"Palega Recreation Center","500 Felton St",94134,"Own",49,"Recreation And Parks",16978,-122.409679988,37.729084301,"POINT (-122.409679988 37.729084301)"
"32",932,"Japanese Teahouse","75 Hagiwara Tea Garden Dr",94117,"Own",49,"Recreation And Parks",2000,-122.470420349,37.769947808,"POINT (-122.470420349 37.76994780799998)"
"33",1347,"Wholesale Produce Market - Public Dock 1 Middle","2095 Jerrold Ave",94124,"Own",63,"Gsa - Real Estate Division",2600,-122.397960994,37.743629117,"POINT (-122.39796099400002 37.74362911700001)"
"34",1184,"Noe Valley Branch Library","451 Jersey St",94114,"Own",48,"Public Library",6096,-122.435090242,37.750228042,"POINT (-122.435090242 37.750228042)"
"35",1982,"Pier 70 - Pier 68 - Sheet Metal/Tools Bldg #109","590 20TH ST",94107,"Own",46,"Port",82099,-122.385952312,37.762030099,"POINT (-122.38595231199997 37.762030099000015)"
"36",2004,"Pier 70 - SWL 349 Equipment Bldg - Bldg #14","420 22nd St",94107,"Own",46,"Port",15969,-122.38300092,37.760392021,"POINT (-122.38300091999997 37.76039202099997)"
"37",685,"Fire Chief's Residence","870 Bush St",94108,"Own",38,"Fire Department",4500,-122.411592179,37.789999241,"POINT (-122.41159217900002 37.789999240999975)"
"38",707,"Fire Station #24","100 Hoffman Ave",94114,"Own",38,"Fire Department",7600,-122.441104981,37.753129349,"POINT (-122.44110498100002 37.753129349000005)"
"39",1309,"Public Safety Building","1245 03rd St",94158,"Own",45,"Police Department",185855,-122.389183108,37.772553913,"POINT (-122.389183108 37.772553913000024)"
"40",12,"BEACH CHALET Shed","1000 Great Hwy",94121,"Own",49,"Recreation And Parks",156,-122.510052117,37.769048966,"POINT (-122.51005211699999 37.769048966000014)"
"41",1980,"Pier 70 - Pier 68 - Pipe Rack, Bldg. #120","590 20TH ST",94107,"Own",46,"Port",1,-122.385952312,37.762030099,"POINT (-122.38595231199997 37.762030099000015)"
"42",1682,"Sunset Branch Library","1305 18th Ave",94122,"Own",48,"Public Library",9434,-122.476310754,37.763348755,"POINT (-122.476310754 37.76334875499998)"
"43",930,"Japanese Tea Garden Men's Bathroom","75 Hagiwara Tea Garden Dr",94117,"Own",49,"Recreation And Parks",258,-122.470196681,37.770076259,"POINT (-122.470196681 37.77007625900001)"
"44",143,"Asian Art Museum","200 Larkin St",94102,"Own",59,"Asian Art Museum",185000,-122.416353656,37.780191455,"POINT (-122.41635365600001 37.78019145500002)"
"45",997,"Lakeshore Elementary","220 Middlefield Dr",94132,"Own",16,"School District (Sfusd)",56101,-122.486008574,37.730050694,"POINT (-122.48600857399998 37.730050694)"
"46",982,"Lafayette Elementary","4545 Anza St",94121,"Own",16,"School District (Sfusd)",54283,-122.496876077,37.777056095,"POINT (-122.49687607700002 37.77705609499998)"
"47",1036,"LRV Station-Montgomery","595 Market St",94104,"Own",42,"Municipal Transportation Agency",24420,-122.401568306,37.789123529,"POINT (-122.401568306 37.789123528999994)"
"48",573,"Curtis E. Green LRV Facility Geneva Site","425 GENEVA AVE",94112,"Own",42,"Municipal Transportation Agency",173521,-122.446467123,37.722051241,"POINT (-122.44646712299999 37.722051240999974)"
"49",273,"240 Van Ness Ave Building","240 Van Ness Ave",94102,"Own",63,"Gsa - Real Estate Division",15950,-122.419410671,37.777998171,"POINT (-122.41941067099998 37.77799817099998)"
"50",714,"Fire Station #32","194 Park St",94110,"Own",38,"Fire Department",10900,-122.42116607,37.736322751,"POINT (-122.42116607000003 37.73632275099999)"
"51",814,"Golden Gate Stables","950 36th Ave",94121,"Own",45,"Police Department",11800,-122.494414108,37.769239978,"POINT (-122.494414108 37.76923997799997)"
"52",1932,"Pier 47 - Scomas Restaurant","PIER 47 Al Scoma Way",94133,"Own",46,"Port",11001,-122.418529639,37.808530178,"POINT (-122.41852963899998 37.80853017800001)"
"53",1798,"Union Square Parking Garages","333 Post St",94108,"Own",42,"Municipal Transportation Agency",113438,-122.407501254,37.78793116,"POINT (-122.40750125400001 37.78793116000003)"
"54",3048,"LRV Station-Civic Center","1150 Market St",94102,"Own",42,"Municipal Transportation Agency",19404,-122.414753258,37.778725294,"POINT (-122.41475325800002 37.778725294000026)"
"55",1209,"Outer Mission Substation","98 Russia Ave",94112,"Own",42,"Municipal Transportation Agency",4996,-122.436704043,37.72110272,"POINT (-122.43670404300002 37.721102719999976)"
"56",68,"5th - Mission Parking Garage","833 Mission St",94103,"Own",42,"Municipal Transportation Agency",992600,-122.405068528,37.783370185,"POINT (-122.40506852800002 37.783370185000024)"
"57",516,"Conservatory Greenhouse 3","100 John F Kennedy Dr",94117,"Own",49,"Recreation And Parks",1645,-122.460083764,37.773001858,"POINT (-122.46008376399999 37.773001857999986)"
"58",2071,"NORTH POINT/ VAN NESS  SFMTA Operator Bathroom","North Point St & Van Ness Ave",94109,"Own",42,"Municipal Transportation Agency",75,-122.425523501,37.805138925,"POINT (-122.42552350099999 37.805138924999994)"
"59",1272,"Pier 19 - Bulkhead/Shed Building","The Embarcadero",94111,"Own",46,"Port",94005,-122.398857251,37.802966212,"POINT (-122.39885725099998 37.802966212)"
"60",84,"9th - Irving Parking Lot","1318 - 9th Ave",94122,"Own",42,"Municipal Transportation Agency",9480,-122.466064927,37.763594586,"POINT (-122.46606492699999 37.76359458600001)"
"61",745,"LRV Station - Forest Hill","354 Laguna Honda Blvd",94116,"Own",42,"Municipal Transportation Agency",27031,-122.459345158,37.747869625,"POINT (-122.45934515800002 37.74786962500002)"
"62",682,"FILLMORE SUBSTATION","1825 Fillmore St",94115,"Own",42,"Municipal Transportation Agency",4774,-122.433876767,37.786435766,"POINT (-122.43387676700002 37.78643576600001)"
"63",1049,"Margaret S. Hayward Recreation Center","800 Golden Gate Ave",94102,"Own",49,"Recreation And Parks",1257,-122.426874153,37.780656759,"POINT (-122.42687415300003 37.78065675900001)"
"64",726,"Fire Station #43","720 Moscow St",94112,"Own",38,"Fire Department",10800,-122.431678707,37.716348673,"POINT (-122.431678707 37.71634867300003)"
"65",1814,"Vehicle & Materials Storage","100 Martin Luther King Dr",94117,"Own",49,"Recreation And Parks",1200,-122.462144389,37.76860409,"POINT (-122.462144389 37.76860409)"
"66",1976,"Pier 70 - Pier 68 - Office Building #101","590 20TH ST",94107,"Own",46,"Port",56268,-122.385952312,37.762030099,"POINT (-122.38595231199997 37.762030099000015)"
"67",972,"Kezar Pavilion","755 Stanyan St",94117,"Own",49,"Recreation And Parks",24254,-122.453629527,37.767538459,"POINT (-122.45362952699998 37.76753845899998)"
"68",941,"Joe Dimaggio Bathrooms","651 Lombard St",94133,"Own",49,"Recreation And Parks",288,-122.412123091,37.802782238,"POINT (-122.41212309100001 37.80278223800002)"
"69",1403,"RICHMOND SUBSTATION","435 8th Ave",94118,"Own",42,"Municipal Transportation Agency",5998,-122.466586032,37.780193043,"POINT (-122.46658603200001 37.780193043)"
"70",1671,"Strybing Storage Shed 2","1199 09th Ave",94117,"Own",49,"Recreation And Parks",130,-122.4725295,37.7674776,"POINT (-122.47252950000001 37.76747760000001)"
"71",517,"Conservatory Greenhouse 4","100 John F Kennedy Dr",94117,"Own",49,"Recreation And Parks",2294,-122.460130212,37.773102406,"POINT (-122.46013021200002 37.77310240600002)"
"72",1291,"Pier 29 - *Bulkhead/Shed Building","1256 The Embarcadero",94133,"Own",46,"Port",155279,-122.402944438,37.805305563,"POINT (-122.40294443800002 37.80530556299999)"
"73",1621,"Southeast Health Center","2401 Keith St",94124,"Own",72,"Public Health",14604,-122.392001104,37.725645804,"POINT (-122.39200110399997 37.72564580400001)"
"74",1130,"Mission Station","630 Valencia St",94110,"Own",45,"Police Department",25000,-122.421969665,37.762680703,"POINT (-122.421969665 37.762680703)"
"75",978,"KIRKLAND DIVISION BLDG","2301 Stockton St",94133,"Own",42,"Municipal Transportation Agency",3036,-122.41073111,37.807090459,"POINT (-122.41073110999997 37.807090458999994)"
"76",675,"Fay House","2366 Leavenworth St",94133,"Own",49,"Recreation And Parks",4536,-122.417873409,37.803036254,"POINT (-122.41787340899998 37.803036254000006)"
"77",455,"CENTRAL SUBWAY PROJECT CHINATOWN STATION SITE","933-949 Stockton St",94108,"Own",42,"Municipal Transportation Agency",10053,-122.408274261,37.794656685,"POINT (-122.40827426099997 37.79465668500001)"
"78",1370,"Randolph Substation","8 Byxbee St",94112,"Own",42,"Municipal Transportation Agency",2215,-122.469624976,37.714545011,"POINT (-122.46962497599998 37.714545010999984)"
"79",898,"International Studies Academy at Enola Maxwell","655 De Haro St",94107,"Own",16,"School District (Sfusd)",108400,-122.400804971,37.761825501,"POINT (-122.40080497100001 37.761825500999976)"
"80",1925,"Pier 43 - Arch","The Embarcadero",94133,"Own",46,"Port",1500,-122.413482904,37.809514569,"POINT (-122.41348290399998 37.80951456899999)"
"81",202,"Bryant Elementary and CDC","2641 25th St",94110,"Own",16,"School District (Sfusd)",32500,-122.404819551,37.751580556,"POINT (-122.404819551 37.75158055600002)"
"82",2023,"Pier 90 - Truck Pits","Cargo Way",94124,"Own",46,"Port",1305,-122.377797369,37.743831172,"POINT (-122.377797369 37.743831172)"
"83",3000,"Claire Lilienthal (K-2 Madison Campus)","3950 Sacramento St",94118,"Own",16,"School District (Sfusd)",20855,-122.458067404,37.787225552,"POINT (-122.45806740400002 37.787225551999995)"
"84",949,"Jose Coronado Clubhouse","2498 Folsom St",94110,"Own",49,"Recreation And Parks",933,-122.415127524,37.757563263,"POINT (-122.41512752400001 37.75756326300001)"
"85",708,"Fire Station #25","3305 3rd St",94124,"Own",38,"Fire Department",11420,-122.386852506,37.746639298,"POINT (-122.38685250600003 37.74663929799999)"
"86",1188,"North Beach Branch Library","850 Columbus Ave",94133,"Own",48,"Public Library",8500,-122.413134859,37.802530815,"POINT (-122.41313485900002 37.80253081500001)"
"87",1254,"PEIXOTTO PLAYGRND: NRSRY SCH.*","2475 15th St",94114,"Own",49,"Recreation And Parks",2000,-122.437832668,37.765767924,"POINT (-122.437832668 37.76576792399999)"
"88",480,"CHURCH SUBSTATION","2120 Market St",94114,"Own",42,"Municipal Transportation Agency",2976,-122.429318784,37.767197247,"POINT (-122.42931878399997 37.76719724700001)"
"89",113,"Alice Fong Yu Elementary","1541 12th Ave",94122,"Own",16,"School District (Sfusd)",59650,-122.469711433,37.758910483,"POINT (-122.46971143299999 37.75891048300002)"
"90",1638,"Starr King Elementary","1215 Carolina St",94107,"Own",16,"School District (Sfusd)",49900,-122.399211136,37.75323852,"POINT (-122.39921113600002 37.753238520000025)"
"91",1906,"Pier 32 1/2 Marginal Wharf (Brannan St)","599 The Embarcadero",94107,"Own",46,"Port",9771,-122.387681804,37.785161354,"POINT (-122.38768180400001 37.785161354000024)"
"92",27,"20th - Irving Parking Lot","1275 20th Ave",94122,"Own",42,"Municipal Transportation Agency",4830,-122.478543012,37.763925725,"POINT (-122.47854301199999 37.76392572499998)"
"93",146,"Auto Shop","100 Martin Luther King Dr",94117,"Own",49,"Recreation And Parks",6050,-122.46107818,37.768701979,"POINT (-122.46107818000002 37.768701979000014)"
"94",488,"Civic Center Plaza Parking Garage","355 McAllister St",94102,"Own",42,"Municipal Transportation Agency",255234,-122.417689311,37.779802205,"POINT (-122.417689311 37.77980220500001)"
"95",848,"Harding Park Maintenance Bldg","99 Harding Rd",94132,"Own",49,"Recreation And Parks",8001,-122.485767494,37.718369111,"POINT (-122.48576749400002 37.718369111000015)"
"96",762,"Funston Senior Center","1800 Chestnut St",94123,"Own",49,"Recreation And Parks",621,-122.433172506,37.801412783,"POINT (-122.433172506 37.80141278299999)"
"97",797,"GGP Golf Club Maintenance Bldg","970 47th Ave",94121,"Own",49,"Recreation And Parks",432,-122.506578583,37.769037662,"POINT (-122.50657858300002 37.76903766200002)"
"98",1704,"SWL 302 - Crab Boat Owners Asso.","2907 Jones St",94133,"Own",46,"Port",2717,-122.418529639,37.808530178,"POINT (-122.41852963899998 37.80853017800001)"
"99",1056,"Marina Green Shops/Restaurants","1 Yacht Rd",94123,"Own",49,"Recreation And Parks",1000,-122.445657317,37.807002361,"POINT (-122.44565731699998 37.807002361)"
"100",1700,"SWL 301 - Andre Boudin Pavilion","160 Jefferson St",94133,"Own",46,"Port",10000,-122.414861113,37.808508272,"POINT (-122.41486111299997 37.80850827199998)"
"101",3026,"Ball Diamond 2 Grandstand","799 Moscow St",94112,"Own",49,"Recreation And Parks",23128,-122.430442296,37.712858197,"POINT (-122.43044229600002 37.712858197)"
"102",1021,"Lloyd Lake Pump Station","John F Kennedy Dr & Transverse Dr",94117,"Own",49,"Recreation And Parks",255,-122.481278216,37.771202133,"POINT (-122.48127821600002 37.771202132999974)"
"103",1807,"Urban Forestry Central Office","2323 Cesar Chavez St",94124,"Own",77,"Public Works",288,-122.400399438,37.749048585,"POINT (-122.40039943800002 37.749048585000025)"
"104",1614,"South of Market Cultural Center,SOMArts","934 Brannan St",94103,"Own",35,"Arts Commission",17844,-122.406594219,37.771157939,"POINT (-122.406594219 37.77115793899998)"
"105",1265,"Pier 15 - Bulkhead/Shed Building (contains trailer","The Embarcadero",94111,"Own",46,"Port",139467,-122.39661631,37.802110215,"POINT (-122.39661631000001 37.80211021500003)"
"106",1702,"Pier 49 - Aliotos Restaurant (Wharf J-1)","8 Fishermans Wharf",94133,"Own",46,"Port",12093,-122.416564715,37.808899168,"POINT (-122.41656471499999 37.80889916799998)"
"107",1945,"Pier 49 Nicks Lighthouse (Wharf J-1)","2815 Taylor St",94133,"Own",46,"Port",2238,-122.416564715,37.808899168,"POINT (-122.41656471499999 37.80889916799998)"
"108",822,"Grattan Elementary","165 Grattan St",94117,"Own",16,"School District (Sfusd)",55420,-122.450448701,37.763697666,"POINT (-122.45044870100003 37.763697665999985)"
"109",946,"John O'Connell High","2355 Folsom St",94110,"Own",16,"School District (Sfusd)",130091,-122.414214839,37.759517188,"POINT (-122.41421483900001 37.75951718800002)"
"110",2050,"Moscone West","747 Howard St",94103,"Own",80,"Gsa - Convention Facilities Management",775000,-122.403285781,37.783250902,"POINT (-122.40328578100002 37.78325090200002)"
"111",843,"Harbormasters Office","3950 Scott St",94123,"Own",49,"Recreation And Parks",1500,-122.442645381,37.806641636,"POINT (-122.44264538099998 37.806641635999995)"
"112",1900,"Pier 29 1/2 - Bulkhead Building","1256 The Embarcadero",94133,"Own",46,"Port",52650,-122.403385555,37.805968447,"POINT (-122.403385555 37.805968447)"
"113",1186,"Noriega CDC","1775 44th Ave",94122,"Own",16,"School District (Sfusd)",14700,-122.50365892,37.753849633,"POINT (-122.50365892000002 37.753849633000016)"
"114",854,"Hayes Valley Clubhouse","689 Hayes St",94102,"Own",49,"Recreation And Parks",2187,-122.427570334,37.776091011,"POINT (-122.427570334 37.776091011000005)"
"115",720,"Fire Station #39","1091 Portola Dr",94127,"Own",38,"Fire Department",8450,-122.458634966,37.740039839,"POINT (-122.45863496599998 37.74003983900002)"
"116",1251,"Paul Revere Elementary","555 Tompkins Ave",94110,"Own",16,"School District (Sfusd)",56400,-122.413158424,37.737262984,"POINT (-122.41315842400002 37.73726298399998)"
"117",1636,"ST. MARY'S SQUARE Parking Garage","433 Kearny St",94108,"Own",42,"Municipal Transportation Agency",61552,-122.40498678,37.792258631,"POINT (-122.40498678 37.79225863099998)"
"118",1260,"Pier 1  -  Port’s administrative offices.","190 The Embarcadero",94105,"Own",46,"Port",151563,-122.393415781,37.797842575,"POINT (-122.39341578099999 37.797842575000004)"
"119",772,"Gateway High / KIPP San Francisco Bay Academy","1430 Scott St",94115,"Own",16,"School District (Sfusd)",143237,-122.437496981,37.783151007,"POINT (-122.43749698099998 37.783151007000015)"
"120",783,"George Peabody Elementary","251 06th Ave",94118,"Own",16,"School District (Sfusd)",16229,-122.465024613,37.783854467,"POINT (-122.46502461300003 37.783854467000026)"
"121",2014,"Pier 80 - Office Bldg #2","271 Cesar Chavez St",94124,"Own",46,"Port",1406,-122.381395615,37.748940176,"POINT (-122.38139561499997 37.74894017600002)"
"122",1078,"McLaren Lodge Annex","501 Stanyan St",94117,"Own",49,"Recreation And Parks",12288,-122.454949852,37.772305087,"POINT (-122.45494985200003 37.77230508700001)"
"123",1668,"Strybing Nursery","1199 09th Ave",94117,"Own",49,"Recreation And Parks",22842,-122.471223511,37.766151095,"POINT (-122.471223511 37.766151095)"
"124",3254,"Hayes Valley Venue","455 Fell St",94102,"Own",63,"Gsa - Real Estate Division",49497,-122.425375601,37.775505519,"POINT (-122.42537560099998 37.77550551899998)"
"125",563,"Harry Tracy Water Filtration","2901 Crystal Springs Rd",94066,"Own",47,"Public Utilities Commission",38870,-122.4244692,37.6020742,"POINT (-122.42446919999998 37.602074200000004)"
"126",867,"HIDDEN VALLEY RANCH SCHL BDG","600 Log Cabin Ranch Road",94020,"Own",21,"Juvenile Probation",7776,-122.25682465,37.305214093,"POINT (-122.25682465 37.30521409300002)"
"127",1029,"Lot DD Long Term Parking","806 S Airport Blvd",94128,"Own",34,"Airport (Sfo)",1005000,-122.400833669,37.634140066,"POINT (-122.40083366900001 37.634140065999986)"
"128",1360,"Pulgas Dechloramination Facility","66 Canada Rd",94062,"Own",47,"Public Utilities Commission",8000,-122.315254214,37.481957221,"POINT (-122.31525421399999 37.481957221000016)"
"129",1433,"San Francisco County Jail #5 - San Bruno Complex","1 Moreland Dr",94066,"Own",15,"Sheriff",283257,-122.459955236,37.627557953,"POINT (-122.45995523599998 37.62755795300001)"
"130",3295,"County Jail #6 - Training Facility","1 Moreland Dr",94066,"Own",15,"Sheriff",50000,-122.461244775,37.627657668,"POINT (-122.46124477500001 37.62765766799998)"
"131",970,"Kelloch/Velasco Maintenance Shed","100 Velasco Ave",94134,"Own",49,"Recreation And Parks",48,-122.412957239,37.70825467,"POINT (-122.41295723899998 37.708254669999974)"
"132",832,"H. Hetchy-Warnerville Substation/Switchyard","10501 Warnerville Rd",95361,"Own",47,"Public Utilities Commission",1835,-120.80243619,37.741594512,"POINT (-120.80243618999998 37.741594512000006)"
"133",1023,"Log Cabin Ranch Sewage Plant","500 Log Cabin Ranch Rd",94020,"Own",21,"Juvenile Probation",450,-122.256459007,37.304790526,"POINT (-122.25645900699999 37.30479052599998)"
"134",1761,"Tesla Portal / Tesla Treatment Facility","9000 Vernalis Rd",95377,"Own",47,"Public Utilities Commission",19246,-121.418167031,37.635837666,"POINT (-121.418167031 37.635837665999986)"
"135",1611,"South Forks Maintenance Yard","Groveland",95321,"Own",47,"Public Utilities Commission",2900,-119.856135769,37.881269985,"POINT (-119.85613576899999 37.88126998500002)"
"136",1024,"Log Cabin Ranch Youth Guidance","Alpine Rd",94020,"Own",21,"Juvenile Probation",80758,-122.256907228,37.304624742,"POINT (-122.25690722799999 37.30462474199999)"
"137",1864,"Wharf J-11","Hyde St Pier",94109,"Own",46,"Port",7000,-122.420000001,37.8084,"POINT (-122.420000001 37.808400000000006)"
"138",1198,"Oakdale Office/Warehouse","04th Ave Between C & D Sts",95361,"Own",47,"Public Utilities Commission",7800,-120.847538431,37.770303067,"POINT (-120.84753843099998 37.770303066999986)"
"139",1413,"Rock River Lime Facility","9855 Rock River Rd",95327,"Own",47,"Public Utilities Commission",2040,-120.514580546,37.824177156,"POINT (-120.51458054599999 37.82417715600002)"
"140",3266,"PUC Water Quality Bureau","1657 Rollins Rd",94010,"Own",47,"Public Utilities Commission",25085,-122.376063084,37.595231184,"POINT (-122.37606308400001 37.595231184)"
"141",996,"Lake Verde Pumphouse-Log Cabin","500 Log Cabin Ranch Rd",94020,"Own",21,"Juvenile Probation",450,-122.25682465,37.305214093,"POINT (-122.25682465 37.30521409300002)"
"142",999,"LAUNDRY/MEDICAL - LOG CABIN","500 Log Cabin Ranch Road",94020,"Own",21,"Juvenile Probation",2600,-122.25682465,37.305214093,"POINT (-122.25682465 37.30521409300002)"
"143",3013,"Sunol Yard","505 Paloma Way",94586,"Own",47,"Public Utilities Commission",12095,-121.884340742,37.590522061,"POINT (-121.884340742 37.590522061)"
"144",548,"County Jail #5, Jail Pharmacy","1 Moreland Drive",94066,"Own",15,"Sheriff",283257,-122.459916834,37.626853139,"POINT (-122.45991683400001 37.62685313899999)"
"145",3037,"San Antonio Pump Station / Sunol WTP","Calaveras Road",94586,"Own",47,"Public Utilities Commission",51202,-121.86044893,37.558539197,"POINT (-121.86044893000002 37.558539197000016)"
"146",873,"HOFFMAN HALL-LOG CABIN","500 Log Cabin Ranch Road",94020,"Own",21,"Juvenile Probation",7400,-122.25682465,37.305214093,"POINT (-122.25682465 37.30521409300002)"
"147",956,"Junipero Serra - Ocean Parking Lot","2500 Ocean Ave",94132,"Own",42,"Municipal Transportation Agency",7640,-122.472366035,37.731509445,"POINT (-122.472366035 37.73150944499997)"
"148",1320,"Portola Library","380 Bacon St",94112,"Own",48,"Public Library",6427,-122.406361724,37.727114209,"POINT (-122.40636172400002 37.72711420899998)"
"149",656,"Fac. 2000 - Ferry Plaza","San Francisco Ferry Bldg",94105,"Own",46,"Port",126225,-122.392368014,37.795337608,"POINT (-122.392368014 37.79533760800001)"
"150",1995,"Pier 70 - SWL 349 - Beth Street Warehouse, Bldg. #32","420 22nd St",94107,"Own",46,"Port",9306,-122.38300092,37.760392021,"POINT (-122.38300091999997 37.76039202099997)"
"151",1406,"Richmond Recreation Center","251 18th Ave",94121,"Own",49,"Recreation And Parks",18500,-122.477976768,37.783270077,"POINT (-122.47797676800002 37.783270077)"
"152",1963,"Pier 70 - Pier 68 - Beth Street Substation #2, Bldg. #50","590 20TH ST",94107,"Own",46,"Port",600,-122.385952312,37.762030099,"POINT (-122.38595231199997 37.762030099000015)"
"153",1692,"Sustainable Streets Shops","1508 Bancroft Ave",94124,"Own",42,"Municipal Transportation Agency",90000,-122.391192427,37.724901091,"POINT (-122.39119242700002 37.72490109099999)"
"154",558,"Crocker Amazon Soccer Field Grandstand","799 Moscow St",94112,"Own",49,"Recreation And Parks",23128,-122.430006274,37.713554473,"POINT (-122.430006274 37.71355447299999)"
"155",1604,"SOMA Eugene Friend Rec Center","270 06th St",94103,"Own",49,"Recreation And Parks",17680,-122.406523121,37.77879423,"POINT (-122.40652312100002 37.77879423000002)"
"156",4,"Visitacion Valley Clubhouse","251 Leland Ave",94134,"Own",49,"Recreation And Parks",2600,-122.408625756,37.712749415,"POINT (-122.40862575599999 37.71274941500002)"
"157",1901,"Pier 3 - Bulkhead/Shed Building","The Embarcadero",94109,"Own",46,"Port",24950,-122.395756882,37.797632006,"POINT (-122.395756882 37.797632006000015)"
"158",1094,"Merced Heights Clubhouse","801 Shields St",94132,"Own",49,"Recreation And Parks",1136,-122.470072304,37.71771849,"POINT (-122.47007230399998 37.71771848999998)"
"159",1734,"SWL 352 - Backlands Redevelopment","Cargo Way",94124,"Own",46,"Port",2120275,-122.377797369,37.743831172,"POINT (-122.377797369 37.743831172)"
"160",1685,"Sunset Rec Center","2201 Lawton St",94122,"Own",49,"Recreation And Parks",18825,-122.486609692,37.757041345,"POINT (-122.486609692 37.757041345000005)"
"161",1917,"Pier 39 - Underwater World","2 Beach St",94133,"Own",46,"Port",18900,-122.410352849,37.810007298,"POINT (-122.41035284899999 37.810007298000016)"
"162",1340,"Presidio Branch Library","3150 Sacramento St",94115,"Own",48,"Public Library",10205,-122.444852345,37.78891097,"POINT (-122.44485234500002 37.78891097000002)"
"163",1421,"Rose Garden Bathroom","700 John F Kennedy Dr",94117,"Own",49,"Recreation And Parks",612,-122.471324632,37.771635178,"POINT (-122.471324632 37.771635178)"
"164",1716,"SWL 303 - Alioto Fish Co,","360 Jefferson St",94133,"Own",46,"Port",7363,-122.418302051,37.80804367,"POINT (-122.41830205100001 37.80804367000002)"
"165",1045,"Main St & Mission St SFMTA Operator Bathroom","Main St & Mission St",94105,"Own",42,"Municipal Transportation Agency",68,-122.395004511,37.792019794,"POINT (-122.39500451100002 37.792019794)"
"166",1456,"Scott NRV Facility","1849 Harrison St",94112,"Own",42,"Municipal Transportation Agency",116144,-122.412937622,37.767593949,"POINT (-122.41293762200002 37.767593949)"
"167",3006,"Lincoln Park Golf Cart Bldg","300 34th Ave",94121,"Own",49,"Recreation And Parks",1920,-122.498322615,37.78425841,"POINT (-122.498322615 37.78425841000001)"
"168",798,"GGP Golf Club Restroom (westend)","970 47th Ave",94121,"Own",49,"Recreation And Parks",588,-122.506578583,37.769037662,"POINT (-122.50657858300002 37.76903766200002)"
"169",827,"Griffith Pumping Station","1601 Griffith St",94124,"Own",47,"Public Utilities Commission",20640,-122.381723018,37.724948156,"POINT (-122.381723018 37.72494815599998)"
"170",1646,"Stern Grove - Dressing Rm 4","2899 19TH AVE",94132,"Own",49,"Recreation And Parks",672,-122.479262979,37.736145532,"POINT (-122.479262979 37.73614553200002)"
"171",1665,"Structural Maintenance Office","100 Martin Luther King Dr",94117,"Own",49,"Recreation And Parks",1275,-122.461971344,37.768796771,"POINT (-122.461971344 37.768796770999984)"
"172",1967,"Pier 70 - Pier 68 - Building #149","590 20TH ST",94107,"Own",46,"Port",600,-122.385952312,37.762030099,"POINT (-122.38595231199997 37.762030099000015)"
"173",1981,"Pier 70 - Pier 68 - Pipe Storage Bldg #107","590 20TH ST",94107,"Own",46,"Port",2880,-122.385952312,37.762030099,"POINT (-122.38595231199997 37.762030099000015)"
"174",1123,"Mission Education Center Elementary","1670 Noe St",94131,"Own",16,"School District (Sfusd)",27000,-122.431435842,37.7422041,"POINT (-122.43143584199998 37.74220409999998)"
"175",22,"18th - Collingwood Parking Lot","4116 18th St",94114,"Own",42,"Municipal Transportation Agency",8467,-122.435541745,37.761090103,"POINT (-122.43554174500002 37.761090103000015)"
"176",2013,"Pier 80 - Entry Canopy","271 Cesar Chavez St",94124,"Own",46,"Port",11040,-122.381395615,37.748940176,"POINT (-122.38139561499997 37.74894017600002)"
"177",144,"Asphalt Plant","1801 Jerrold Ave",94124,"Own",77,"Public Works",6634,-122.393720536,37.740779722,"POINT (-122.39372053599999 37.74077972200001)"
"178",985,"Laguna Honda Hospital","375 Laguna Honda Blvd",94116,"Own",72,"Public Health",440163,-122.456652881,37.748080172,"POINT (-122.45665288100002 37.748080172000016)"
"179",623,"Dutch Windmill Pump Station","John F Kennedy Dr & Great Hwy",94117,"Own",49,"Recreation And Parks",426,-122.509168979,37.770256033,"POINT (-122.50916897899998 37.77025603300001)"
"180",1903,"Pier 31 - Bulkhead/Shed Building","1398 The Embarcadero",94133,"Own",46,"Port",95375,-122.404450012,37.806574117,"POINT (-122.40445001199998 37.806574117000025)"
"181",1713,"SWL 302 Franks Fisherman Supply","366 Jefferson St",94133,"Own",46,"Port",8183,-122.418520185,37.80800351,"POINT (-122.41852018499998 37.80800350999999)"
"182",487,"Civic Center Courthouse","400 McAllister St",94102,"Own",4,"Superior Court",231000,-122.419659954,37.780436491,"POINT (-122.419659954 37.78043649099999)"
"183",1131,"MISSION-BARTLETT Parking Garage","3255 21st St",94110,"Own",42,"Municipal Transportation Agency",113759,-122.420289654,37.756639216,"POINT (-122.42028965399999 37.756639215999996)"
"184",1305,"Playmates Nursery","2340 42nd Ave",94116,"Own",16,"School District (Sfusd)",3000,-122.500138395,37.743125021,"POINT (-122.50013839500002 37.743125021000026)"
"185",3296,"170 Otis Garage","170 Otis St",94103,"Own",52,"Human Services Agency",35000,-122.42057936,37.770626948,"POINT (-122.42057935999998 37.77062694799997)"
"186",206,"Buena Vista Park Bathrooms","Buena Vista Ave East & Haight St",94117,"Own",49,"Recreation And Parks",400,-122.439679013,37.769290364,"POINT (-122.43967901299999 37.76929036400003)"
"187",1480,"ZSFGH Garage","2500 24th St",94110,"Own",42,"Municipal Transportation Agency",480000,-122.404917037,37.753296613,"POINT (-122.40491703700002 37.753296612999975)"
"188",3243,"Lady Shaw Senior Center","1483 Mason St",94133,"Own",103,"Mayor",12615,-122.412128782,37.797091896,"POINT (-122.41212878200002 37.79709189599998)"
"189",1823,"Visitacion Valley Daycare Center","103 Tucker Ave",94134,"Own",49,"Recreation And Parks",1753,-122.406315262,37.715919709,"POINT (-122.40631526200002 37.71591970899999)"
"190",52,"San Francisco City Clinic","356 07th St",94103,"Own",72,"Public Health",8000,-122.40703355,37.775927093,"POINT (-122.40703355 37.77592709300001)"
"191",1032,"Lower Great Hwy Judah Bathrooms","1401 Great Hwy",94122,"Own",49,"Recreation And Parks",1560,-122.50956015,37.760227571,"POINT (-122.50956015000003 37.76022757099997)"
"192",908,"J.M. Woods Div-Wash/Warehouse","1095 Indiana St",94107,"Own",42,"Municipal Transportation Agency",113885,-122.390184779,37.756733075,"POINT (-122.39018477899998 37.756733075)"
"193",711,"Fire Station #29","299 Vermont St",94103,"Own",38,"Fire Department",8300,-122.404295793,37.766156471,"POINT (-122.40429579300002 37.76615647099999)"
"194",1351,"Wholesale Produce Market - South Bldg 2101","2101 Jerrold Ave",94124,"Own",63,"Gsa - Real Estate Division",71114,-122.399781143,37.743830231,"POINT (-122.39978114299998 37.743830231000004)"
"195",1942,"Pier 49 - Sabella & Latorre (Wharf J-1)","2809 Taylor St",94133,"Own",46,"Port",2840,-122.416564715,37.808899168,"POINT (-122.41656471499999 37.80889916799998)"
"196",1296,"Pier 96 - Office/Restroom","1000 Amador St",94124,"Own",46,"Port",1716,-122.377797369,37.743831172,"POINT (-122.377797369 37.743831172)"
"197",3047,"LRV Station-Church","Market st & Church St",94114,"Own",42,"Municipal Transportation Agency",16926,-122.429056986,37.76739702,"POINT (-122.42905698599998 37.767397019999976)"
"198",1331,"Potrero Hill Health Center","1050 Wisconsin St",94107,"Own",72,"Public Health",6500,-122.39892769,37.754009478,"POINT (-122.39892769 37.754009478)"
"199",1891,"Zellerbach Rehearsal Hall","300 Franklin St",94102,"Own",53,"War Memorial",26400,-122.421135127,37.77740875,"POINT (-122.42113512700001 37.777408750000006)"
"200",128,"Anza Branch Library","550 37th Ave",94121,"Own",48,"Public Library",8222,-122.497258095,37.778569507,"POINT (-122.497258095 37.778569506999986)"
"201",1853,"West Portal Branch Library","190 Lenox Way",94127,"Own",48,"Public Library",8536,-122.466143952,37.741370185,"POINT (-122.46614395199998 37.741370184999994)"
"202",631,"Elk Glen Pump Station","Martin Luther King  Jr Dr & 25th Ave",94117,"Own",49,"Recreation And Parks",3180,-122.482462764,37.767682432,"POINT (-122.48246276399999 37.767682432000015)"
"203",1041,"M. L. King Childcare Center","200 Cashmere St",94124,"Own",77,"Public Works",7409,-122.386054346,37.73703468,"POINT (-122.38605434599998 37.73703468000002)"
"204",852,"Harvey Milk Civil Rights Academy","4235 19th St",94114,"Own",16,"School District (Sfusd)",30560,-122.436455121,37.758979677,"POINT (-122.436455121 37.75897967700001)"
"205",1793,"Ulloa Elementary","2650 42nd Ave",94116,"Own",16,"School District (Sfusd)",53000,-122.499388547,37.737330348,"POINT (-122.49938854700002 37.737330348)"
"206",3302,"1 Ave of the Palms Building","1 Ave of the Palms",94130,"Own",114,"Treasure Island Development Authority",4052,-122.370871463,37.81721268,"POINT (-122.37087146300001 37.81721268000001)"
"207",955,"June Jordan High","325 La Grande Ave",94112,"Own",16,"School District (Sfusd)",151600,-122.425252762,37.719240499,"POINT (-122.42525276200001 37.71924049900002)"
"208",1369,"Randall Museum","199 Museum Way",94114,"Own",49,"Recreation And Parks",32030,-122.438147758,37.764423238,"POINT (-122.43814775800001 37.764423238000006)"
"209",31,"2275 | Pier 27 Adm/Pier 29 Annex","Pier 27",94111,"Own",46,"Port",11800,-122.401081639,37.805332873,"POINT (-122.40108163899998 37.805332873)"
"210",1246,"Parkside Branch Library","1200 Taraval St",94116,"Own",48,"Public Library",6890,-122.479345064,37.743162358,"POINT (-122.47934506399997 37.743162358000006)"
"211",20,"1715 Yosemite Ave","1715 Yosemite Ave",94124,"Own",63,"Gsa - Real Estate Division",2495,-122.394060236,37.727899245,"POINT (-122.39406023599997 37.727899245)"
"212",602,"DPW-BUF Trailer","2323 Cesar Chavez St",94124,"Own",77,"Public Works",3375,-122.400399438,37.749048585,"POINT (-122.40039943800002 37.749048585000025)"
"213",1898,"Pier 28 1/2 - Hidive Restaurant","The Embarcadero",94105,"Own",46,"Port",1307,-122.387444593,37.787474156,"POINT (-122.387444593 37.78747415599997)"
"214",952,"Judah Substaion","2710 Judah St",94122,"Own",42,"Municipal Transportation Agency",2495,-122.491220213,37.761320235,"POINT (-122.49122021300002 37.76132023500003)"
"215",803,"GGP Nursery","100 Martin Luther King Jr Dr",94122,"Own",49,"Recreation And Parks",5016,-122.461589119,37.767527607,"POINT (-122.461589119 37.76752760699998)"
"216",1806,"Urban Forestry Center Weight Room","2323 Cesar Chavez St",94124,"Own",77,"Public Works",308,-122.400399438,37.749048585,"POINT (-122.40039943800002 37.749048585000025)"
"217",1954,"Pier 54 - Shed Building","569 Terry A Francois Blvd",94158,"Own",46,"Port",24636,-122.384474581,37.769992244,"POINT (-122.384474581 37.76999224399998)"
"218",34,"24th - Noe Parking Lot","4061 24th St",94114,"Own",42,"Municipal Transportation Agency",5500,-122.433105966,37.751107783,"POINT (-122.43310596600003 37.75110778300001)"
"219",974,"Kezar Stadium Maintenance Facility","755 Stanyan St",94117,"Own",49,"Recreation And Parks",40464,-122.454446879,37.767332354,"POINT (-122.45444687899999 37.76733235400002)"
"220",33,"24th - Capp Parking Lot","1 Lilac St",94110,"Own",42,"Municipal Transportation Agency",6600,-122.417650771,37.752099313,"POINT (-122.41765077100001 37.752099312999974)"
"221",2022,"Pier 90 - Storage Bldg","Cargo Way",94124,"Own",46,"Port",468,-122.377797369,37.743831172,"POINT (-122.377797369 37.743831172)"
"222",897,"Ingleside Police Station","1 Sergeant John V Young St",94112,"Own",45,"Police Department",18500,-122.446251045,37.724770134,"POINT (-122.446251045 37.72477013399998)"
"223",1300,"Pierce St Parking Garage","3252 Pierce St",94123,"Own",42,"Municipal Transportation Agency",38150,-122.439144205,37.800025192,"POINT (-122.43914420499999 37.80002519200002)"
"224",1038,"LRV Station-The Embarcadero","202 Market St",94105,"Own",42,"Municipal Transportation Agency",14140,-122.396396298,37.793184265,"POINT (-122.39639629800001 37.79318426499998)"
"225",808,"Glen Park Branch Library","2825 Diamond St",94131,"Own",48,"Public Library",7185,-122.433833155,37.733980204,"POINT (-122.433833155 37.73398020399998)"
"226",3015,"Rossi maintenance facility 1","600 Arguello Blvd",94118,"Own",49,"Recreation And Parks",1200,-122.457066842,37.779312189,"POINT (-122.45706684200002 37.779312188999995)"
"227",1011,"Lincoln Park Golf Course Clubhouse","300 34th Ave",94121,"Own",49,"Recreation And Parks",2000,-122.494328121,37.782263541,"POINT (-122.49432812100002 37.78226354100002)"
"228",912,"Jackson Maintenance Facilities","1645 17th St",94107,"Own",49,"Recreation And Parks",1200,-122.400397802,37.764765698,"POINT (-122.40039780199999 37.76476569800002)"
"229",1077,"McLaren Lodge","501 Stanyan St",94117,"Own",49,"Recreation And Parks",4964,-122.454503071,37.772176089,"POINT (-122.45450307099998 37.77217608900003)"
"230",1312,"Police Stables Shed","1475 John F Kennedy Dr",94117,"Own",49,"Recreation And Parks",400,-122.495377083,37.768936312,"POINT (-122.495377083 37.768936311999994)"
"231",74,"7th Ave & California St SFMTA Operator Bathroom","4439 California St",94118,"Own",42,"Municipal Transportation Agency",75,-122.465268061,37.784815451,"POINT (-122.46526806100002 37.784815450999986)"
"232",1136,"Monroe Elementary","260 Madrid St",94112,"Own",16,"School District (Sfusd)",53400,-122.430476495,37.72564249,"POINT (-122.430476495 37.725642489999984)"
"233",1989,"Pier 70 - Pier 68 - Yard Washroom, Bldg. #110","590 20TH ST",94107,"Own",46,"Port",3925,-122.385952312,37.762030099,"POINT (-122.38595231199997 37.762030099000015)"
"234",1355,"Public Defender's Office","555 7th St",94103,"Own",63,"Gsa - Real Estate Division",50064,-122.403968656,37.77389542,"POINT (-122.40396865600002 37.773895419999974)"
"235",1277,"Pier 22 ½  - SFFD.  Firehouse.","48 The Embarcadero",94105,"Own",46,"Port",4960,-122.388440069,37.790221026,"POINT (-122.38844006900001 37.79022102599998)"
"236",1729,"SWL 319 Fog City Diner","1300 Battery St",94111,"Own",46,"Port",4644,-122.401859183,37.803487033,"POINT (-122.401859183 37.80348703300001)"
"237",732,"Fire Station #7/DOT-2 Bngl/Class/Office","2300 Folsom St",94110,"Own",38,"Fire Department",8712,-122.415348507,37.759832069,"POINT (-122.41534850699998 37.759832069000026)"
"238",1017,"Lincoln Park Sm Maint Bldg","300 34th Ave",94121,"Own",49,"Recreation And Parks",684,-122.498322615,37.78425841,"POINT (-122.498322615 37.78425841000001)"
"239",1722,"SWL 311 Pier 39 Garage","2 Beach St",94133,"Own",46,"Port",242304,-122.411680445,37.808128328,"POINT (-122.411680445 37.80812832800001)"
"240",950,"Jose Ortega Elementary","400 Sargent St",94132,"Own",16,"School District (Sfusd)",35180,-122.466294062,37.716378991,"POINT (-122.46629406199997 37.716378991)"
"241",1811,"VALLEJO STREET Parking Garage","766 Vallejo St",94133,"Own",42,"Municipal Transportation Agency",70760,-122.409910678,37.798726573,"POINT (-122.40991067800002 37.79872657300001)"
"242",1414,"James Rolph Jr Clubhouse","1451 HAMPSHIRE ST",94110,"Own",49,"Recreation And Parks",2730,-122.406649242,37.749975682,"POINT (-122.40664924200001 37.74997568200001)"
"243",190,"Hunters Point Shipyard Building 606","606 Manseau St",94124,"Own",45,"Police Department",90000,-122.367436445,37.720502415,"POINT (-122.36743644500001 37.720502415)"
"244",1634,"St Mary's Square Bathrooms","633 California St",94108,"Own",49,"Recreation And Parks",525,-122.405109398,37.791724163,"POINT (-122.40510939799998 37.791724163000026)"
"245",86,"9th & Clement Parking Lot","330 9th Ave",94118,"Own",42,"Municipal Transportation Agency",7850,-122.467255656,37.782192037,"POINT (-122.46725565600002 37.782192037000016)"
"246",366,"CABLE CAR BARN","1201 Mason St",94108,"Own",42,"Municipal Transportation Agency",83741,-122.411920173,37.794884605,"POINT (-122.411920173 37.79488460499999)"
"247",1274,"Pier 19 1/2 - Bulkhead/Shed","The Embarcadero",94111,"Own",46,"Port",43200,-122.399235036,37.802699035,"POINT (-122.399235036 37.80269903499999)"
"248",1857,"West Sunset Clubhouse building","3223 Ortega St",94116,"Own",49,"Recreation And Parks",13530,-122.498335147,37.75073088,"POINT (-122.49833514699998 37.75073087999999)"
"249",90,"Abraham Lincoln High","2162 24th Ave",94116,"Own",16,"School District (Sfusd)",330200,-122.481094009,37.747285855,"POINT (-122.481094009 37.74728585499997)"
"250",387,"Carousel Concession Stand","320 Bowling Green Dr",94117,"Own",49,"Recreation And Parks",663,-122.458235273,37.768042241,"POINT (-122.45823527300001 37.76804224099999)"
"251",1040,"LYON ST/GREENWICH ST SFMTA Operator Bathroom","Lyon St & Greenwich St",94123,"Own",42,"Municipal Transportation Agency",75,-122.447312089,37.797629893,"POINT (-122.44731208899998 37.79762989300002)"
"252",1941,"Pier 49 - Guardinos (Wharf J-1)","2801 Taylor St",94133,"Own",46,"Port",1040,-122.416564715,37.808899168,"POINT (-122.41656471499999 37.80889916799998)"
"253",1707,"SWL 302 - Scomas (Smoke House)","Al Scoma Way",94133,"Own",46,"Port",4805,-122.418529639,37.808530178,"POINT (-122.41852963899998 37.80853017800001)"
"254",1871,"Woh Hei Yuen Rec Center building","922 Jackson St",94133,"Own",49,"Recreation And Parks",5000,-122.410270485,37.795802124,"POINT (-122.41027048500001 37.79580212399998)"
"255",799,"GGP Golf Course Clubhouse","970 47th Ave",94117,"Own",49,"Recreation And Parks",5026,-122.506586901,37.769101277,"POINT (-122.50658690099999 37.769101277000004)"
"256",1129,"Mission Rec Center","2450 Harrison St",94110,"Own",49,"Recreation And Parks",20514,-122.412586022,37.758148734,"POINT (-122.41258602200003 37.758148733999974)"
"257",1709,"SWL 302 Cal Shell Fish Shed","Pier 47",94133,"Own",46,"Port",1470,-122.418529639,37.808530178,"POINT (-122.41852963899998 37.80853017800001)"
"258",734,"Fire Station #9","2245 Jerrold Ave",94124,"Own",38,"Fire Department",15000,-122.401235582,37.745262342,"POINT (-122.40123558200003 37.74526234199999)"
"259",150,"AWSS Pipeyard (behind 2245 Jerrold)","2245 JERROLD AVE",94124,"Own",38,"Fire Department",6400,-122.401640545,37.744633411,"POINT (-122.40164054500002 37.744633410999995)"
"260",275,"Bureau of Equipment Headquarters","2501 25th St",94110,"Own",38,"Fire Department",7000,-122.40357997,37.751749027,"POINT (-122.40357997000001 37.75174902700002)"
"261",1231,"Park Station","1899 Waller St",94117,"Own",45,"Police Department",13700,-122.455226013,37.76782399,"POINT (-122.45522601300001 37.76782399000001)"
"262",221,"MOSCONE NORTH","730 Howard St",94103,"Own",80,"Gsa - Convention Facilities Management",520000,-122.40190094,37.784366171,"POINT (-122.40190094000002 37.78436617099999)"
"263",1344,"Presidio Middle","450 30th Ave",94121,"Own",16,"School District (Sfusd)",140000,-122.489627111,37.780864737,"POINT (-122.489627111 37.780864737)"
"264",1958,"Pier 64 1/2 Kelly Mission Rock Resort Restnt","Pier 64 1/2",94158,"Own",46,"Port",10000,-122.386565372,37.765475051,"POINT (-122.386565372 37.76547505100001)"
"265",1187,"NORTH BEACH Parking Garage","735 Vallejo St",94133,"Own",42,"Municipal Transportation Agency",82402,-122.409540636,37.798375567,"POINT (-122.40954063599997 37.798375566999994)"
"266",1843,"Waterbar Restaurant","399 The Embarcadero",94105,"Own",46,"Port",9000,-122.389083602,37.79050017,"POINT (-122.38908360200003 37.79050016999997)"
"267",1697,"Sutter - Stockton Parking Garage","444 Stockton St",94108,"Own",42,"Municipal Transportation Agency",745000,-122.406436115,37.789989059,"POINT (-122.40643611500002 37.78998905899999)"
"268",860,"Herbert Hoover Middle","2290 14th Ave",94116,"Own",16,"School District (Sfusd)",132400,-122.468826018,37.745743851,"POINT (-122.46882601800002 37.745743850999986)"
"269",1789,"Visitacion Valley Community Center","66 Raymond Ave",94134,"Own",63,"Gsa - Real Estate Division",7250,-122.404359666,37.712540356,"POINT (-122.404359666 37.71254035599998)"
"270",553,"CREW Building (near Forestry Center)","1000 Great Hwy",94117,"Own",49,"Recreation And Parks",448,-122.483741512,37.767539839,"POINT (-122.483741512 37.767539838999994)"
"271",724,"Fire Station #41","1325 Leavenworth St",94109,"Own",38,"Fire Department",9600,-122.416495156,37.793376858,"POINT (-122.416495156 37.79337685799999)"
"272",1134,"Model Yacht Clubhouse","John F Kennedy Dr & 36th Ave",94117,"Own",49,"Recreation And Parks",3168,-122.495600918,37.770207603,"POINT (-122.49560091799998 37.77020760300002)"
"273",1988,"Pier 70 - Pier 68 - Warehouse & 6-ton crane, Bldg. #49","590 20TH ST",94107,"Own",46,"Port",10000,-122.385952312,37.762030099,"POINT (-122.38595231199997 37.762030099000015)"
"274",590,"Douglass Clubhouse","1100 Douglass St",94114,"Own",49,"Recreation And Parks",1072,-122.438392549,37.747822614,"POINT (-122.43839254900001 37.74782261399997)"
"275",3285,"BROADWAY/EMBARCADERO SIDEWALK","Broadway and Embarcadero",94111,"Own",46,"Port",2925,-122.397995376,37.798895178,"POINT (-122.39799537599998 37.79889517800001)"
"276",911,"Jackson Clubhouse","1645 17th St",94107,"Own",49,"Recreation And Parks",5040,-122.399607261,37.764314919,"POINT (-122.39960726100003 37.764314919000014)"
"277",1423,"Rossi Annex Bathrooms","2 Willard St North",94118,"Own",49,"Recreation And Parks",390,-122.457700119,37.778010576,"POINT (-122.45770011899998 37.778010575999986)"
"278",655,"Fac. 200 - World Trade Club Restaurant","San Francisco Ferry Bldg",94105,"Own",46,"Port",30048,-122.391858452,37.79575865,"POINT (-122.39185845200001 37.79575864999998)"
"279",2043,"Laguna Honda - Pavilion Building","375 Laguna Honda Blvd",94116,"Own",72,"Public Health",148039,-122.456878498,37.749291263,"POINT (-122.45687849799998 37.749291262999975)"
"280",760,"Fulton Clubhouse","855 27th Ave",94121,"Own",49,"Recreation And Parks",1420,-122.486836588,37.773549983,"POINT (-122.48683658800002 37.77354998300001)"
"281",1992,"Pier 70 - SWL 345 - Kneass, Pier 66 Boatyard Office","420 22nd St",94107,"Own",46,"Port",2000,-122.38300092,37.760392021,"POINT (-122.38300091999997 37.76039202099997)"
"282",525,"Conservatory Staff Bathroom/Storage","100 John F Kennedy Dr",94117,"Own",49,"Recreation And Parks",480,-122.460363094,37.772709364,"POINT (-122.460363094 37.77270936399998)"
"283",465,"Chinatown Branch Library","1135 Powell St",94108,"Own",48,"Public Library",17858,-122.410082495,37.795238875,"POINT (-122.41008249499998 37.795238874999995)"
"284",1817,"Veterans Building","401 Van Ness Ave",94102,"Own",53,"War Memorial",247500,-122.420980631,37.779527555,"POINT (-122.42098063100002 37.779527555000016)"
"285",177,"Bercut Maintenance Bldgs","Bercut Access Rd & Chain of Lakes Dr",94117,"Own",49,"Recreation And Parks",1320,-122.502552927,37.766391586,"POINT (-122.50255292700001 37.766391586)"
"286",1093,"Merced Branch Library","155 Winston Dr",94132,"Own",48,"Public Library",5832,-122.474493769,37.726593669,"POINT (-122.47449376899999 37.72659366900001)"
"287",924,"Japanese Pagoda","1610 Geary Blvd",94115,"Own",49,"Recreation And Parks",289,-122.429842621,37.785113982,"POINT (-122.42984262099998 37.785113981999984)"
"288",1984,"Pier 70 - Pier 68 - Steel Shop Office (bldg #121)","590 20TH ST",94107,"Own",46,"Port",615,-122.385952312,37.762030099,"POINT (-122.38595231199997 37.762030099000015)"
"289",375,"Camp Ida Smith","1100 Lake Merced Blvd",94132,"Own",47,"Public Utilities Commission",1200,-122.484730729,37.712401087,"POINT (-122.48473072899998 37.71240108699999)"
"290",1030,"Louis Sutter Clubhouse","600 University St",94134,"Own",49,"Recreation And Parks",2940,-122.414386109,37.722384349,"POINT (-122.41438610900002 37.72238434899998)"
"291",1299,"Pier 96 - Truck Scales","1000 Amador St",94124,"Own",46,"Port",500,-122.377797369,37.743831172,"POINT (-122.377797369 37.743831172)"
"292",875,"Holly Park Bathrooms","Holly Park Cir & Highland Ave",94110,"Own",49,"Recreation And Parks",420,-122.420056762,37.736765424,"POINT (-122.420056762 37.736765424)"
"293",1943,"Pier 49 - Tarantinos Restaurant (Wharf J-1)","206 Jefferson St",94133,"Own",46,"Port",7153,-122.416564715,37.808899168,"POINT (-122.41656471499999 37.80889916799998)"
"294",951,"Joseph Lee Rec Center","1395 Mendell St",94124,"Own",49,"Recreation And Parks",17331,-122.389599527,37.734893731,"POINT (-122.38959952699997 37.734893731)"
"295",710,"Fire Station #28","1814 Stockton St",94133,"Own",38,"Fire Department",9350,-122.409351508,37.802547875,"POINT (-122.40935150799999 37.802547875000016)"
"296",1294,"Pier 96 - Exit Canopy","1000 Amador St",94124,"Own",46,"Port",5950,-122.377797369,37.743831172,"POINT (-122.377797369 37.743831172)"
"297",3121,"LRV Station - West Portal","West Portal Ave & Ulloa St",94127,"Own",42,"Municipal Transportation Agency",55308,-122.46559651,37.74113611,"POINT (-122.46559651000001 37.741136110000014)"
"298",577,"De Young Museum","50 Hagiwara Tea Garden Dr",94117,"Own",58,"Fine Arts Museums",292500,-122.468812412,37.771583543,"POINT (-122.46881241199998 37.77158354300002)"
"299",1001,"Lawton Elementary","1570 31st Ave",94122,"Own",16,"School District (Sfusd)",64940,-122.489098243,37.758050764,"POINT (-122.489098243 37.75805076400002)"
"300",391,"Castro Mission Health Center","3850 17th St",94114,"Own",72,"Public Health",15258,-122.431871054,37.762938336,"POINT (-122.431871054 37.76293833599999)"
"301",1228,"Park Branch Library","1833 Page St",94117,"Own",48,"Public Library",8825,-122.45100116,37.770135518,"POINT (-122.45100115999998 37.77013551800002)"
"302",1603,"Sojourner Truth Child Center","1 Cashmere St",94124,"Own",77,"Public Works",5184,-122.381628563,37.735574172,"POINT (-122.38162856299999 37.735574171999986)"
"303",498,"Clarendon Elementary","500 Clarendon Ave",94131,"Own",16,"School District (Sfusd)",39500,-122.456323215,37.753757316,"POINT (-122.456323215 37.75375731600002)"
"304",1809,"Urban Forestry Office Trailer 1","2323 Cesar Chavez St",94124,"Own",77,"Public Works",695,-122.400399438,37.749048585,"POINT (-122.40039943800002 37.749048585000025)"
"305",731,"Fire Station #7 - Division 3 Headquarters","2300 Folsom St",94110,"Own",38,"Fire Department",16488,-122.41504182,37.760255397,"POINT (-122.41504182 37.76025539699998)"
"306",107,"Alamo Elementary","250 23rd Ave",94121,"Own",16,"School District (Sfusd)",50420,-122.482479612,37.783007135,"POINT (-122.48247961200002 37.78300713499999)"
"307",1732,"SWL 345 - SF Boat Works Office/Shop","835 Terry A Francois Blvd",94158,"Own",46,"Port",7750,-122.386987699,37.76413623,"POINT (-122.38698769899997 37.76413623000002)"
"308",1993,"Pier 70 - SWL 349 - Auto Yard Shop Bldg #19","420 22nd St",94107,"Own",46,"Port",6152,-122.382765235,37.75915968,"POINT (-122.38276523500002 37.75915967999998)"
"309",539,"Corporation Yard Fuel Pumps","2323 Cesar Chavez St",94124,"Own",77,"Public Works",159299,-122.40173087,37.748234828,"POINT (-122.40173087 37.74823482800002)"
"310",3011,"Old Mint","88 05th St",94103,"Own",63,"Gsa - Real Estate Division",93568,-122.40723325,37.782725393,"POINT (-122.40723324999999 37.78272539300002)"
"311",170,"Bay Shore Blvd & Arleta Ave SFMTA Operator Bathroom","1 Arleta Ave",94134,"Own",42,"Municipal Transportation Agency",75,-122.402895512,37.712372333,"POINT (-122.40289551199999 37.71237233300002)"
"312",1808,"Urban Forestry Crew Shack","2323 Cesar Chavez St",94124,"Own",77,"Public Works",506,-122.400399438,37.749048585,"POINT (-122.40039943800002 37.749048585000025)"
"313",533,"Corp Yard Gas Station","100 Martin Luther King Dr",94117,"Own",49,"Recreation And Parks",5929,-122.46061628,37.76894882,"POINT (-122.46061628000001 37.76894881999999)"
"314",700,"Fire Station #18","1935 32nd Ave",94116,"Own",38,"Fire Department",15900,-122.490543907,37.750986363,"POINT (-122.49054390700002 37.75098636299998)"
"315",624,"E R Taylor Elementary","423 Burrows St",94134,"Own",16,"School District (Sfusd)",56113,-122.407465824,37.727679749,"POINT (-122.40746582399998 37.727679749)"
"316",1726,"Roundhouse Plaza Building 1","1500 Sansome St",94111,"Own",46,"Port",20130,-122.403207082,37.804605796,"POINT (-122.403207082 37.804605795999976)"
"317",76,"Maintenance-Ways & Structural-Misc Facility","700 Pennsylvania Ave",94107,"Own",42,"Municipal Transportation Agency",88470,-122.393549611,37.756923668,"POINT (-122.39354961100003 37.75692366800001)"
"318",3027,"POTRERO DIVISION","2500 Mariposa St",94110,"Own",42,"Municipal Transportation Agency",101510,-122.408792646,37.763329583,"POINT (-122.408792646 37.76332958299997)"
"319",1922,"Pier 40 Restaurant & Robert Steck Chandelry","89 King St",94107,"Own",46,"Port",3990,-122.386635945,37.781690361,"POINT (-122.38663594500002 37.78169036100002)"
"320",1684,"Sunset Mental Health Services","1990 41st Ave",94116,"Own",72,"Public Health",5500,-122.49949039,37.749895993,"POINT (-122.49949039 37.749895992999996)"
"321",519,"Conservatory Lath House","100 John F Kennedy Dr",94117,"Own",49,"Recreation And Parks",1320,-122.460636289,37.772835418,"POINT (-122.46063628899998 37.772835418)"
"322",1411,"Robert Louis Stevenson Elementary","2051 34th Ave",94116,"Own",16,"School District (Sfusd)",47500,-122.492756089,37.748844414,"POINT (-122.49275608900001 37.74884441400002)"
"323",812,"Gleneagles Golf Course Clubhouse","2100 Sunnydale Ave",94134,"Own",49,"Recreation And Parks",2000,-122.424391108,37.716024013,"POINT (-122.42439110800001 37.71602401299998)"
"324",1255,"PERFORMING ARTS Parking Garage","360 Grove St",94102,"Own",42,"Municipal Transportation Agency",213564,-122.422508773,37.77808561,"POINT (-122.422508773 37.778085610000005)"
"325",696,"Fire Station #14","551 26th Ave",94121,"Own",38,"Fire Department",15900,-122.486061621,37.778992649,"POINT (-122.48606162099998 37.778992648999974)"
"326",1349,"Wholesale Produce Market - Public Dock 3 Middle","1999 Jerrold Ave",94124,"Own",63,"Gsa - Real Estate Division",2600,-122.396407556,37.742774786,"POINT (-122.39640755599999 37.742774785999984)"
"327",1138,"Moscone Bathrooms","1800 Chestnut St",94123,"Own",49,"Recreation And Parks",500,-122.43460644,37.802196917,"POINT (-122.43460643999998 37.802196917)"
"328",627,"Edison Charter Academy Elementary","3531 22nd St",94114,"Own",16,"School District (Sfusd)",59200,-122.42626571,37.754436242,"POINT (-122.42626571 37.754436242)"
"329",804,"Ghirardelli Rustic Structure","201 Conservatory Dr West",94117,"Own",49,"Recreation And Parks",1794,-122.46155808,37.773137977,"POINT (-122.46155807999997 37.773137976999976)"
"330",1213,"Ortega Branch Library","3223 Ortega St",94122,"Own",48,"Public Library",9300,-122.498103197,37.751224058,"POINT (-122.49810319699998 37.75122405799999)"
"331",191,"Boeddeker Park Clubhouse","295 Eddy St",94102,"Own",49,"Recreation And Parks",3740,-122.411828354,37.784324818,"POINT (-122.41182835400002 37.784324818000016)"
"332",3326,"101 Hyde St Building","101 Hyde St",94102,"Own",63,"Gsa - Real Estate Division",7505,-122.415748854,37.781832439,"POINT (-122.41574885400001 37.78183243900003)"
"333",3304,"Wholesale Produce Market - 2095 Jerrold","2095 Jerrold Ave",94124,"Own",63,"Gsa - Real Estate Division",13179,-122.398782317,37.743724019,"POINT (-122.39878231699998 37.74372401900001)"
"334",625,"Earl P. Mills Community Center","100 Whitney Young Circle",94124,"Own",77,"Public Works",15000,-122.384001886,37.73416123,"POINT (-122.38400188600002 37.734161229999984)"
"335",3289,"Washington HS SFMTA Operator Restrooms","32nd Ave/Geary Blvd",94121,"Own",42,"Municipal Transportation Agency",190,-122.491661476,37.779568233,"POINT (-122.49166147599999 37.77956823300002)"
"336",893,"Ida B Wells High","1099 Hayes St",94117,"Own",16,"School District (Sfusd)",34300,-122.43403688,37.774986386,"POINT (-122.43403688000001 37.77498638600002)"
"337",3024,"WEST PORTAL SUBSTATION","145 Lenox Way",94127,"Own",42,"Municipal Transportation Agency",3375,-122.4655049,37.74158694,"POINT (-122.46550489999998 37.74158693999999)"
"338",1720,"SWL 303 - GP Resources","2950 Hyde St",94133,"Own",46,"Port",416,-122.420116284,37.808053161,"POINT (-122.42011628400002 37.808053160999975)"
"339",678,"Felton - San Bruno  Parking Lot","25 Felton St",94134,"Own",42,"Municipal Transportation Agency",5100,-122.405047409,37.72968291,"POINT (-122.40504740900002 37.72968291000001)"
"340",2049,"Moscone Rec Center","1800 Chestnut St",94123,"Own",49,"Recreation And Parks",8929,-122.433045993,37.80145337,"POINT (-122.43304599300001 37.80145336999999)"
"341",1405,"Richmond PG Clubhouse","149 18th Ave",94121,"Own",49,"Recreation And Parks",1200,-122.4778686,37.785313444,"POINT (-122.47786860000002 37.785313443999996)"
"342",1267,"Pier 15/17 Valley - demolition","The Embarcadero",94111,"Own",46,"Port",105311,-122.397990374,37.801741554,"POINT (-122.39799037400002 37.80174155399999)"
"343",2064,"North Beach Swimming Pool","651 Lombard St",94133,"Own",49,"Recreation And Parks",12283,-122.412319174,37.802796436,"POINT (-122.412319174 37.802796435999994)"
"344",1597,"Silver Terrace Clubhouse","1700 Silver Ave",94124,"Own",49,"Recreation And Parks",1242,-122.402472241,37.732534208,"POINT (-122.402472241 37.732534208000004)"
"345",695,"Fire Station #13","530 Sansome St",94111,"Own",38,"Fire Department",18790,-122.401350156,37.795518711,"POINT (-122.40135015599998 37.795518711)"
"346",2054,"Mountain Lake Park Bathrooms","1 11th Ave",94118,"Own",49,"Recreation And Parks",448,-122.471766221,37.786974147,"POINT (-122.471766221 37.78697414700002)"
"347",60,"47th Ave & Wawona St SFMTA Operator Bathroom","3559 Wawona St",94116,"Own",42,"Municipal Transportation Agency",150,-122.504871283,37.736059587,"POINT (-122.504871283 37.736059587)"
"348",2007,"Pier 70 - SWL 349 Shop Building - Bldg #21","420 22nd St",94107,"Own",46,"Port",10172,-122.38300092,37.760392021,"POINT (-122.38300091999997 37.76039202099997)"
"349",1207,"Old Fire Station 21","1152 Oak St",94117,"Own",38,"Fire Department",5600,-122.438366224,37.77330114,"POINT (-122.43836622399999 37.77330114)"
"350",694,"Fire Station #12","1145 Stanyan St",94117,"Own",38,"Fire Department",11300,-122.452586445,37.763449926,"POINT (-122.45258644500001 37.76344992600002)"
"351",1911,"Pier 34 1/2 Marginal Wharf","2 Beach St",94133,"Own",46,"Port",4815,-122.387727816,37.784125277,"POINT (-122.387727816 37.78412527699999)"
"352",192,"Bowling Green Clubhouse","310 Bowling Green Dr",94117,"Own",49,"Recreation And Parks",2150,-122.459959075,37.76876178,"POINT (-122.45995907499997 37.76876177999998)"
"353",173,"Bayview Station","201 Williams Ave",94124,"Own",45,"Police Department",16000,-122.398086555,37.729641718,"POINT (-122.39808655500002 37.72964171799998)"
"354",1679,"Sunnyside Maintenance Facilities","233 Melrose Ave",94127,"Own",49,"Recreation And Parks",1200,-122.448255167,37.733884418,"POINT (-122.44825516700001 37.733884418)"
"355",1073,"Maxine Hall Health Center","1301 Pierce St",94115,"Own",72,"Public Health",20590,-122.436035952,37.782238562,"POINT (-122.436035952 37.782238561999975)"
"356",1418,"Roosevelt Middle","460 Arguello Blvd",94118,"Own",16,"School District (Sfusd)",121000,-122.458356149,37.782285288,"POINT (-122.458356149 37.782285288000026)"
"357",1000,"Laurel Hill Clubhouse","301 Euclid Ave",94118,"Own",49,"Recreation And Parks",1134,-122.451181023,37.783718573,"POINT (-122.451181023 37.78371857299999)"
"358",618,"Dupont Courts Restrooms","340 31st Ave",94121,"Own",49,"Recreation And Parks",440,-122.490854973,37.782877702,"POINT (-122.49085497300001 37.78287770200001)"
"359",1916,"Pier 39 - Retail Shops","2 Beach St",94133,"Own",46,"Port",261972,-122.410352849,37.810007298,"POINT (-122.41035284899999 37.810007298000016)"
"360",3253,"17th and Folsom - Future Housing","2080 Folsom St",94110,"Own",63,"Gsa - Real Estate Division",29075,-122.415428079,37.76427392,"POINT (-122.41542807899998 37.764273919999994)"
"361",1176,"Old MUNI-Fillmore substation","1150 Fillmore St",94115,"Own",63,"Gsa - Real Estate Division",4774,-122.431815937,37.780376787,"POINT (-122.43181593700001 37.78037678700002)"
"362",1947,"Pier 50 - Shed C","400 Mission Rock St",94158,"Own",46,"Port",91179,-122.383916836,37.773630996,"POINT (-122.38391683600003 37.77363099600001)"
"363",816,"Golden Gate Yacht Club","1 Yacht Rd",94123,"Own",49,"Recreation And Parks",1500,-122.446906177,37.807189599,"POINT (-122.44690617700002 37.807189599000026)"
"364",715,"Fire Station #33","8 Capitol Ave",94112,"Own",38,"Fire Department",5900,-122.458580701,37.710859478,"POINT (-122.45858070100002 37.710859477999975)"
"365",2005,"Pier 70 - SWL 349 Heavy Machine Shop - Bldg #113","420 22nd St",94107,"Own",46,"Port",74566,-122.38300092,37.760392021,"POINT (-122.38300091999997 37.76039202099997)"
"366",3255,"Parcel T Venue","188 Octavia Blvd",94102,"Own",63,"Gsa - Real Estate Division",13198,-122.423655831,37.773674239,"POINT (-122.42365583100002 37.773674239)"
"367",642,"Equestrian Center Stables","Golden Gate Equestrian Center",94122,"Own",49,"Recreation And Parks",14608,-122.494155887,37.769377368,"POINT (-122.49415588699998 37.769377367999994)"
"368",1994,"Pier 70 - SWL 349 - Beth Street Stress Relieving, Bldg. #16","420 22nd St",94107,"Own",46,"Port",7734,-122.38300092,37.760392021,"POINT (-122.38300091999997 37.76039202099997)"
"369",1870,"Windmills Pump Station","1691 John F Kennedy Dr",94121,"Own",49,"Recreation And Parks",2842,-122.508853501,37.770353054,"POINT (-122.50885350099998 37.770353054)"
"370",2002,"Pier 70 - SWL 349 - UIW Machine Shop, Bldg. #114","420 22nd St",94107,"Own",46,"Port",8000,-122.38300092,37.760392021,"POINT (-122.38300091999997 37.76039202099997)"
"371",1262,"Pier 1 1/2 - Bulkhead/Shed Building","The Embarcadero",94105,"Own",46,"Port",15444,-122.394138903,37.796673936,"POINT (-122.394138903 37.79667393599999)"
"372",1304,"Pioneer Log Cabin","1 Stow Lake Dr",94117,"Own",49,"Recreation And Parks",2256,-122.475483433,37.770850077,"POINT (-122.47548343300002 37.77085007699998)"
"373",1259,"PHELPS SUBSTATION","702 Phelps St",94124,"Own",42,"Municipal Transportation Agency",2500,-122.390643943,37.74082221,"POINT (-122.39064394299999 37.740822209999976)"
"374",868,"Hillcrest Elementary","810 Silver Ave",94134,"Own",16,"School District (Sfusd)",60280,-122.418862256,37.728822311,"POINT (-122.41886225600001 37.72882231099999)"
"375",703,"Fire Station #20","285 Olympia Way",94131,"Own",38,"Fire Department",10300,-122.456076693,37.751171245,"POINT (-122.456076693 37.75117124500002)"
"376",654,"Excelsior Youth Center","163 London St",94112,"Own",16,"School District (Sfusd)",20000,-122.432156776,37.726358567,"POINT (-122.432156776 37.72635856699998)"
"377",1930,"Pier 47 - Scoma / Fish Prep Bldg","The Embarcadero",94133,"Own",46,"Port",713,-122.418529639,37.808530178,"POINT (-122.41852963899998 37.80853017800001)"
"378",1343,"Presidio Heights Clubhouse","3437 Clay St",94118,"Own",49,"Recreation And Parks",958,-122.44978473,37.788536066,"POINT (-122.44978472999998 37.788536066000006)"
"379",1220,"Palace of Fine Arts -Theater","3601 Lyon St",94123,"Own",49,"Recreation And Parks",28300,-122.449168395,37.802818105,"POINT (-122.44916839500002 37.80281810499997)"
"380",613,"Dr George Washington Carver Elementary","1360 Oakdale Ave",94124,"Own",16,"School District (Sfusd)",45500,-122.38557042,37.73184271,"POINT (-122.38557042000002 37.73184271000002)"
"381",709,"Fire Station #26","80 Digby St",94131,"Own",38,"Fire Department",15000,-122.433399694,37.740283058,"POINT (-122.433399694 37.74028305799999)"
"382",1648,"Stern Grove - New Stage","2899 19TH AVE",94132,"Own",49,"Recreation And Parks",1134,-122.479262979,37.736145532,"POINT (-122.479262979 37.73614553200002)"
"383",980,"LA PLAYA/CABRILLO OCEAN BEACH SFMTA Operator Bathroom","780 La Playa",94121,"Own",42,"Municipal Transportation Agency",75,-122.509765444,37.773450922,"POINT (-122.50976544399998 37.773450921999995)"
"384",1292,"Pier 94 - Wharfside Building","600 Amador St",94124,"Own",46,"Port",800,-122.377797369,37.743831172,"POINT (-122.377797369 37.743831172)"
"385",1940,"Pier 49 - Fishermans Memorial Chapel","Pier 49",94133,"Own",46,"Port",1002,-122.416564715,37.808899168,"POINT (-122.41656471499999 37.80889916799998)"
"386",805,"Gilman Bathrooms","993 Gilman Ave",94124,"Own",49,"Recreation And Parks",270,-122.38833114,37.716828649,"POINT (-122.38833113999999 37.71682864899998)"
"387",501,"Coit Tower","1 Telegraph Hill Blvd",94133,"Own",49,"Recreation And Parks",5687,-122.405764318,37.802368851,"POINT (-122.40576431800002 37.80236885099998)"
"388",1970,"Pier 70 - Pier 68 - Checkhouse #2, Bldg. #123","590 20TH ST",94107,"Own",46,"Port",1,-122.385952312,37.762030099,"POINT (-122.38595231199997 37.762030099000015)"
"389",481,"Church & Duboce Supervisors Tower","45 CHURCH ST",94114,"Own",42,"Municipal Transportation Agency",180,-122.428914,37.769565,"POINT (-122.42891400000002 37.769565)"
"390",1998,"Pier 70 - SWL 349 - Beth Street Washroom & Locker, Bldg. #29","420 22nd St",94107,"Own",46,"Port",3696,-122.38300092,37.760392021,"POINT (-122.38300091999997 37.76039202099997)"
"391",1990,"Pier 70 - Pier 68 - Yard Washroom, Bldg. #119","590 20TH ST",94107,"Own",46,"Port",1440,-122.385952312,37.762030099,"POINT (-122.38595231199997 37.762030099000015)"
"392",469,"Chinese Education Center","657 Merchant St",94111,"Own",16,"School District (Sfusd)",10580,-122.404057793,37.794768244,"POINT (-122.40405779299999 37.79476824400001)"
"393",1062,"MARKET ST/POWELL ST AT HALLIDIE PLAZA SFMTA Operator Bathroom","Market St & Powell St",94102,"Own",42,"Municipal Transportation Agency",75,-122.408484512,37.784115303,"POINT (-122.40848451199997 37.78411530300002)"
"394",992,"Lake Merced Boathouse","1 Harding Rd",94132,"Own",49,"Recreation And Parks",8100,-122.499675272,37.725589068,"POINT (-122.49967527199999 37.72558906799998)"
"395",973,"Kezar Stadium","755 Stanyan St",94117,"Own",49,"Recreation And Parks",5000,-122.455979468,37.766891793,"POINT (-122.45597946800001 37.76689179300001)"
"396",460,"Charlie Sava Community Pool","2695 19th Ave",94116,"Own",49,"Recreation And Parks",12900,-122.475698052,37.737787236,"POINT (-122.47569805199998 37.737787235999974)"
"397",615,"Dr William Cobb Elementary","2725 California St",94115,"Own",16,"School District (Sfusd)",36246,-122.439626576,37.787701836,"POINT (-122.43962657600002 37.787701836)"
"398",855,"Western Addition Community Technology Center","1003 Turk St",94102,"Own",49,"Recreation And Parks",4500,-122.425605996,37.781139332,"POINT (-122.425605996 37.78113933200001)"
"399",576,"Davies Symphony Hall","201 Van Ness Ave",94102,"Own",53,"War Memorial",203500,-122.420476892,37.777670151,"POINT (-122.42047689200001 37.777670150999995)"
"400",1476,"Sewage Pumping Station","Drumm St & Washington St",94111,"Own",47,"Public Utilities Commission",4500,-122.397179373,37.796184439,"POINT (-122.39717937299997 37.796184439)"
"401",522,"Conservatory of Flowers","100 John F Kennedy Dr",94117,"Own",49,"Recreation And Parks",27900,-122.460208187,37.772642519,"POINT (-122.46020818699998 37.77264251899999)"
"402",1013,"Lincoln Park Maintenance Buildings","300 34th Ave",94121,"Own",49,"Recreation And Parks",1125,-122.498322615,37.78425841,"POINT (-122.498322615 37.78425841000001)"
"403",1858,"Western Addition Branch Library","1550 Scott St",94115,"Own",48,"Public Library",8000,-122.437489303,37.784118524,"POINT (-122.437489303 37.78411852400001)"
"404",1669,"Strybing Pump Stn","Lincoln Way and 09th Ave",94117,"Own",49,"Recreation And Parks",702,-122.466941922,37.766102008,"POINT (-122.46694192199999 37.76610200800002)"
"405",88,"A P Giannini Middle","3151 Ortega St",94116,"Own",16,"School District (Sfusd)",136392,-122.497214202,37.750615917,"POINT (-122.49721420200001 37.750615917000005)"
"406",3328,"772 Pacific Ave","772 Pacific Ave",94133,"Own",63,"Gsa - Real Estate Division",13271,-122.407983665,37.79690711,"POINT (-122.40798366500002 37.79690711000001)"
"407",152,"Balboa Substation","682 32nd Ave",94121,"Own",42,"Municipal Transportation Agency",1350,-122.491762425,37.776320065,"POINT (-122.49176242499999 37.77632006499999)"
"408",2009,"Pier 70 - SWL 349 Traffic Dept. Shed - Bldg #66","420 22nd St",94107,"Own",46,"Port",22116,-122.38300092,37.760392021,"POINT (-122.38300091999997 37.76039202099997)"
"409",3298,"Life Learning Academy High School","651 8th TI St",94130,"Own",16,"School District (Sfusd)",20723,-122.369074098,37.824924625,"POINT (-122.369074098 37.824924624999994)"
"410",126,"Animal Care and Control, ACC","1200 15th St",94103,"Own",67,"Gsa - Animal Care And Control",30000,-122.412973548,37.7670877,"POINT (-122.41297354800002 37.76708769999999)"
"411",1584,"Sheridan Elementary","431 Capitol Ave",94112,"Own",16,"School District (Sfusd)",46335,-122.459629415,37.714475987,"POINT (-122.459629415 37.714475987000014)"
"412",1628,"St Francis Yacht Club","99 Yacht Rd",94123,"Own",49,"Recreation And Parks",46500,-122.446401953,37.807237239,"POINT (-122.44640195300002 37.80723723900002)"
"413",2000,"Pier 70 - SWL 349 - Foundry, Bldg. #116","420 22nd St",94107,"Own",46,"Port",17400,-122.38300092,37.760392021,"POINT (-122.38300091999997 37.76039202099997)"
"414",3043,"LRV Station-Castro","Castro St & 17th St",94114,"Own",42,"Municipal Transportation Agency",15942,-122.43555412,37.762434812,"POINT (-122.43555412 37.76243481199998)"
"415",717,"Fire Station #36","109 Oak St",94102,"Own",38,"Fire Department",16100,-122.42121128,37.774932406,"POINT (-122.42121128000002 37.774932406000005)"
"416",648,"Eureka Valley Branch Library/ Harvey Milk Memorial Branch Library","1 Jose Sarria Ct",94114,"Own",48,"Public Library",6465,-122.431881717,37.76406037,"POINT (-122.43188171700001 37.76406036999998)"
"417",766,"Glen Park Substation","3600 Mission St",94110,"Own",42,"Municipal Transportation Agency",15950,-122.423913873,37.739682237,"POINT (-122.423913873 37.73968223700001)"
"418",1658,"Stow Lake Restrooms","50 Stow Lake Dr",94117,"Own",49,"Recreation And Parks",721,-122.476891592,37.771006851,"POINT (-122.47689159200002 37.77100685099998)"
"419",1108,"Minnie & Lovie Ward Rec Center","650 Capitol Ave",94112,"Own",49,"Recreation And Parks",18565,-122.458175629,37.716269644,"POINT (-122.45817562899998 37.71626964400002)"
"420",833,"H. WELTON FLYNN DIV.","1940 Harrison St",94103,"Own",42,"Municipal Transportation Agency",268872,-122.414312377,37.766202315,"POINT (-122.41431237699999 37.76620231499999)"
"421",1443,"San Miguel CDC","300 Seneca Ave",94112,"Own",16,"School District (Sfusd)",52545,-122.444858017,37.721491334,"POINT (-122.444858017 37.72149133400001)"
"422",1852,"West Portal Parking Lot","174 West Portal Ave",94127,"Own",42,"Municipal Transportation Agency",6237,-122.468122479,37.739168966,"POINT (-122.46812247899999 37.73916896600002)"
"423",507,"Commodore Stockton CDC","1 Trenton St",94108,"Own",16,"School District (Sfusd)",21255,-122.409086414,37.795045281,"POINT (-122.409086414 37.795045281)"
"424",592,"Downtown Substation","79 Stevenson St",94105,"Own",42,"Municipal Transportation Agency",4644,-122.400096703,37.789259216,"POINT (-122.40009670299997 37.789259216000005)"
"425",1718,"SWL 303 - Cioppinos/(Hoppe)","400 Jefferson St",94133,"Own",46,"Port",11442,-122.419294425,37.807966813,"POINT (-122.41929442499998 37.80796681300001)"
"426",894,"ILLINOIS SUBSTATION","555 Illinois St",94158,"Own",46,"Port",1500,-122.387813532,37.765316458,"POINT (-122.387813532 37.76531645799997)"
"427",730,"Fire Station #6","135 Sanchez St",94114,"Own",38,"Fire Department",13500,-122.430874155,37.767078707,"POINT (-122.43087415500003 37.767078706999996)"
"428",692,"Fire Station #10","655 Presidio Ave",94115,"Own",38,"Fire Department",14300,-122.446723289,37.785625258,"POINT (-122.44672328899998 37.78562525799998)"
"429",1404,"Richmond Branch Library","351 09th Ave",94118,"Own",48,"Public Library",13900,-122.468099204,37.781844245,"POINT (-122.468099204 37.781844245)"
"430",1803,"Upper Noe Rec Center building","295 Day St",94131,"Own",49,"Recreation And Parks",24150,-122.428373351,37.742332658,"POINT (-122.428373351 37.74233265800001)"
"431",1785,"Treat Street Building","745 Treat Ave",94110,"Own",49,"Recreation And Parks",10336,-122.413384594,37.758181145,"POINT (-122.41338459399998 37.75818114499998)"
"432",3280,"370 Linden - Parcel K","370 Linden St",94102,"Own",63,"Gsa - Real Estate Division",11430,-122.424061964,37.776481903,"POINT (-122.42406196399997 37.77648190299999)"
"433",953,"JUDAH LOOP SFMTA Operator Bathroom","Judah St & La Playa",94122,"Own",42,"Municipal Transportation Agency",150,-122.508979779,37.760156302,"POINT (-122.50897977900001 37.760156301999984)"
"434",796,"GGP Golf Club and Restaurant","970 47th Ave",94121,"Own",49,"Recreation And Parks",1450,-122.506578583,37.769037662,"POINT (-122.50657858300002 37.76903766200002)"
"435",1048,"Malcolm X Elementary","350 Harbor Rd",94124,"Own",16,"School District (Sfusd)",50800,-122.380953703,37.73415421,"POINT (-122.38095370299999 37.734154209999986)"
"436",1678,"Sunnyside Elementary","250 Foerster St",94112,"Own",16,"School District (Sfusd)",30900,-122.448233626,37.730287839,"POINT (-122.44823362599999 37.73028783900003)"
"437",26,"One South Van Ness","1 South Van Ness Ave",94103,"Own",63,"Gsa - Real Estate Division",639220,-122.418797792,37.774691202,"POINT (-122.41879779200002 37.774691201999985)"
"438",936,"Jefferson Early Education","1350 25th Ave",94122,"Own",16,"School District (Sfusd)",2400,-122.483167248,37.762319943,"POINT (-122.48316724799997 37.76231994300002)"
"439",447,"West Portal Playground and SFMTA Central Control","131 Lenox Way",94127,"Own",42,"Municipal Transportation Agency",3375,-122.465322054,37.741731486,"POINT (-122.46532205400001 37.74173148599999)"
"440",83,"8th - Clement Parking Lot","324 8th Ave",94118,"Own",42,"Municipal Transportation Agency",10720,-122.466042913,37.782453212,"POINT (-122.46604291300002 37.78245321200001)"
"441",530,"Copra Crane","1698 Indiana St",94124,"Own",47,"Public Utilities Commission",2000,-122.390439676,37.747501892,"POINT (-122.39043967600003 37.747501892)"
"442",1287,"Pier 26 - Bulkhead/Shed","The Embarcadero",94105,"Own",46,"Port",128834,-122.386495495,37.78922362,"POINT (-122.38649549500002 37.78922361999997)"
"443",1419,"Rosa Parks Elementary / Raphael Weill CDC","1501 OFarrell St",94115,"Own",16,"School District (Sfusd)",66900,-122.43001154,37.783493403,"POINT (-122.43001154000001 37.78349340300002)"
"444",1975,"Pier 70 - Pier 68 - Office Bldg Annex to #101, Bldg. #40","590 20TH ST",94107,"Own",46,"Port",11800,-122.385952312,37.762030099,"POINT (-122.38595231199997 37.762030099000015)"
"445",277,"Materials Management Warehouse","1570-1580 Burke Ave",94124,"Own",42,"Municipal Transportation Agency",103231,-122.385900693,37.744686259,"POINT (-122.385900693 37.74468625899999)"
"446",1632,"St Mary's RC Maintenance Shed","95 Justin Dr",94110,"Own",49,"Recreation And Parks",1200,-122.420658026,37.733669798,"POINT (-122.42065802600001 37.733669797999994)"
"447",2062,"New Traditions Elementary","2049 Grove St",94117,"Own",16,"School District (Sfusd)",26300,-122.450266898,37.773885428,"POINT (-122.450266898 37.77388542800003)"
"448",1750,"Tenderloin Station","301 Eddy St",94102,"Own",45,"Police Department",27500,-122.41290674,37.783645648,"POINT (-122.41290673999998 37.783645648000004)"
"449",594,"Downtown High","693 Vermont St",94107,"Own",16,"School District (Sfusd)",58760,-122.403875454,37.761363305,"POINT (-122.403875454 37.761363304999975)"
"450",764,"Galileo High","1150 Francisco St",94109,"Own",16,"School District (Sfusd)",242400,-122.424479269,37.803748346,"POINT (-122.42447926900002 37.80374834600002)"
"451",79,"7th & Irving Parking Lot","1340 7th Ave",94122,"Own",16,"School District (Sfusd)",27444,-122.463829085,37.763560486,"POINT (-122.46382908499999 37.76356048600002)"
"452",986,"Laguna Honda - North Residence","375 Laguna Honda Blvd",94116,"Own",72,"Public Health",208377,-122.456524261,37.750042374,"POINT (-122.45652426100003 37.750042373999975)"
"453",3010,"Mission High","3750 18th St",94114,"Own",16,"School District (Sfusd)",225000,-122.427112676,37.761774299,"POINT (-122.42711267599998 37.761774299000024)"
"454",367,"Cabrillo Clubhouse","858 38th Ave",94121,"Own",49,"Recreation And Parks",1420,-122.49847353,37.773094097,"POINT (-122.49847353000001 37.77309409700001)"
"455",1057,"Marina Middle","3500 Fillmore St",94123,"Own",16,"School District (Sfusd)",152900,-122.436046866,37.801679935,"POINT (-122.43604686600003 37.80167993499998)"
"456",1752,"Tennis & Pro Shop","Nancy Pelosi Dr & Bowling Green Dr",94117,"Own",49,"Recreation And Parks",1500,-122.459741466,37.76982961,"POINT (-122.45974146600003 37.76982960999999)"
"457",1953,"Pier 54 - Oil Shed","569 Terry A Francois Blvd",94158,"Own",46,"Port",798,-122.384474581,37.769992244,"POINT (-122.384474581 37.76999224399998)"
"458",629,"El Dorado Elementary","70 Delta St",94134,"Own",16,"School District (Sfusd)",30300,-122.407296073,37.718421983,"POINT (-122.407296073 37.718421982999985)"
"459",733,"Fire Station #8","36 Bluxome St",94107,"Own",38,"Fire Department",8000,-122.396710093,37.777305644,"POINT (-122.39671009300002 37.77730564400002)"
"460",1703,"SWL 302 - Castagnola/Storage Bldg","286 Jefferson St",94133,"Own",46,"Port",1721,-122.416564715,37.808899168,"POINT (-122.41656471499999 37.80889916799998)"
"461",1973,"Pier 70 - Pier 68 - near checkhouse #2, Building #51","590 20TH ST",94107,"Own",46,"Port",400,-122.385952312,37.762030099,"POINT (-122.38595231199997 37.762030099000015)"
"462",761,"Fulton Storage Shed","855 27th Ave",94121,"Own",49,"Recreation And Parks",38,-122.487322308,37.773547956,"POINT (-122.48732230799999 37.773547956000016)"
"463",967,"KEITH SUBSTATION","3400 Keith St",94124,"Own",42,"Municipal Transportation Agency",1650,-122.398526429,37.719592566,"POINT (-122.39852642900001 37.71959256600002)"
"464",89,"Arboretum Bookstore","1199 09TH AVE",94122,"Own",49,"Recreation And Parks",170,-122.470377949,37.768998271,"POINT (-122.47037794900001 37.76899827099999)"
"465",1336,"Powell St. Railroad Station","Fulton St & 07th Ave",94117,"Own",49,"Recreation And Parks",26751,-122.464794956,37.773326548,"POINT (-122.46479495599999 37.773326548)"
"466",1178,"Murphy Windmill Pump Station","Martin Luther King Dr & Lincoln Way",94117,"Own",49,"Recreation And Parks",500,-122.508430946,37.765168588,"POINT (-122.50843094599998 37.765168587999995)"
"467",945,"John Muir Elementary","380 Webster St",94117,"Own",16,"School District (Sfusd)",53500,-122.428787224,37.773723696,"POINT (-122.42878722400002 37.77372369599999)"
"468",17,"16th - Hoff Parking Garage","42 Hoff St",94110,"Own",42,"Municipal Transportation Agency",17284,-122.420642415,37.764396202,"POINT (-122.42064241499997 37.764396202)"
"469",1920,"Pier 40 1/2 - Java House","89 King St",94107,"Own",46,"Port",1104,-122.387611636,37.779935517,"POINT (-122.38761163599997 37.77993551700001)"
"470",1353,"Wholesale Produce Market - South Bldg M","1901 Jerrold Ave",94124,"Own",63,"Gsa - Real Estate Division",60232,-122.396275141,37.742048142,"POINT (-122.39627514099999 37.74204814199999)"
"471",1444,"Sanchez Elementary","325 Sanchez St",94114,"Own",16,"School District (Sfusd)",50500,-122.430500027,37.763460073,"POINT (-122.430500027 37.763460072999976)"
"472",1326,"Potrero Branch Library","1616 20th St",94107,"Own",48,"Public Library",6410,-122.397664101,37.76013594,"POINT (-122.39766410099998 37.76013594)"
"473",1039,"LRV Station-Van Ness","1515 Market St",94103,"Own",42,"Municipal Transportation Agency",18596,-122.419270681,37.775147656,"POINT (-122.419270681 37.775147656)"
"474",728,"Fire Station #48","800 Avenue I",94130,"Own",38,"Fire Department",18000,-122.369210982,37.826668301,"POINT (-122.36921098200003 37.826668300999984)"
"475",471,"Chinese Pavilion","50 Stow Lake Dr",94117,"Own",49,"Recreation And Parks",1508,-122.473613671,37.768383707,"POINT (-122.47361367100001 37.768383707)"
"476",712,"Fire Station #3","1067 Post St",94109,"Own",38,"Fire Department",8000,-122.419320984,37.786641204,"POINT (-122.41932098400002 37.78664120399998)"
"477",1974,"Pier 70 - Pier 68 - Office Bldg (#127)","590 20TH ST",94107,"Own",46,"Port",2304,-122.385952312,37.762030099,"POINT (-122.38595231199997 37.762030099000015)"
"478",582,"Emergency Operations Center","1011 Turk St",94102,"Own",92,"Emergency Management",56000,-122.426087317,37.78110376,"POINT (-122.426087317 37.78110376000001)"
"479",705,"Fire Station #22","1290 16th Ave",94122,"Own",38,"Fire Department",5900,-122.473687117,37.763930368,"POINT (-122.473687117 37.76393036799999)"
"480",1119,"Mission CDC","2950 Mission St",94110,"Own",16,"School District (Sfusd)",4100,-122.418556939,37.749819168,"POINT (-122.41855693899998 37.74981916799999)"
"481",2016,"Pier 80 Office Bldg #1","271 Cesar Chavez St",94124,"Own",46,"Port",1406,-122.381395615,37.748940176,"POINT (-122.38139561499997 37.74894017600002)"
"482",1921,"Pier 40 1/2 (S Beach Harbor Wharf)","89 King St",94107,"Own",46,"Port",58308,-122.387611636,37.779935517,"POINT (-122.38761163599997 37.77993551700001)"
"483",3001,"Coffman Community Pool","1701 Visitacion Ave",94134,"Own",49,"Recreation And Parks",2289,-122.415814629,37.713259078,"POINT (-122.41581462900001 37.71325907800002)"
"484",1888,"Bessie Smith Nursery & School","95 Gough St",94102,"Own",16,"School District (Sfusd)",3700,-122.422616624,37.773766259,"POINT (-122.422616624 37.77376625900001)"
"485",1818,"Vicente Maintenance Facility","Great Hwy & Vicente St",94122,"Own",49,"Recreation And Parks",122,-122.506644814,37.73822732,"POINT (-122.50664481400003 37.73822732000002)"
"486",891,"Hyde Street Pier","2905 Hyde St",94109,"Own",46,"Port",18689,-122.420981748,37.808794608,"POINT (-122.42098174799997 37.80879460800003)"
"487",3315,"450 6th St","450 6th St",94103,"Own",63,"Gsa - Real Estate Division",5998,-122.403332817,37.776430845,"POINT (-122.40333281699998 37.77643084499999)"
"488",1987,"Pier 70 - Pier 68 - Substation #7 (bldg #68)","590 20TH ST",94107,"Own",46,"Port",1440,-122.385952312,37.762030099,"POINT (-122.38595231199997 37.762030099000015)"
"489",768,"Garfield Square Clubhouse","3100 26th St",94110,"Own",49,"Recreation And Parks",2320,-122.411986041,37.749936292,"POINT (-122.41198604099998 37.74993629199997)"
"490",1109,"Miraloma Clubhouse","25 Omar Way",94127,"Own",49,"Recreation And Parks",1352,-122.449410894,37.73916391,"POINT (-122.44941089399998 37.73916391)"
"491",1247,"Parkside Square Bathrooms","2680 28th Ave",94116,"Own",49,"Recreation And Parks",312,-122.483757764,37.738344865,"POINT (-122.48375776400002 37.73834486499999)"
"492",1248,"Parque Ninos Unidos Clubhouse","990 Treat Ave",94110,"Own",49,"Recreation And Parks",2414,-122.413933558,37.754262314,"POINT (-122.413933558 37.754262314000016)"
"493",1727,"SWL 318 Roundhouse Two","10 Lombard St",94111,"Own",46,"Port",27340,-122.402939246,37.804234679,"POINT (-122.40293924600002 37.80423467899999)"
"494",536,"CORP. YARD MAIN OFFICE/SHOP*","501 Stanyan St",94117,"Own",49,"Recreation And Parks",1275,-122.460367392,37.768700779,"POINT (-122.46036739200002 37.76870077900003)"
"495",1991,"Pier 70 - SWL 345 - Kneass Boatworks, Main Office/boat storage","420 22nd St",94107,"Own",46,"Port",1,-122.38300092,37.760392021,"POINT (-122.38300091999997 37.76039202099997)"
"496",495,"Claremont - Ulloa Parking Lot","807 Ulloa St",94127,"Own",42,"Municipal Transportation Agency",12900,-122.465398724,37.740312755,"POINT (-122.46539872400001 37.74031275499999)"
"497",388,"Carousel Maint Bldg","320 Bowling Green Dr",94117,"Own",49,"Recreation And Parks",341,-122.458230344,37.767726489,"POINT (-122.45823034400001 37.76772648899998)"
"498",1295,"Pier 96 - Maintenance Building","1000 Amador St",94124,"Own",46,"Port",25320,-122.377797369,37.743831172,"POINT (-122.377797369 37.743831172)"
"499",1855,"West Portal Elementary","5 Lenox Way",94127,"Own",16,"School District (Sfusd)",44700,-122.464388982,37.742816064,"POINT (-122.464388982 37.74281606400001)"
"500",1657,"Stow Lake Boathouse","50 Stow Lake Dr",94117,"Own",49,"Recreation And Parks",3926,-122.477076598,37.770613649,"POINT (-122.477076598 37.77061364899998)"
"501",204,"Buena Vista / Horace Mann","3351 23rd St",94110,"Own",16,"School District (Sfusd)",68000,-122.420297049,37.753072851,"POINT (-122.420297049 37.75307285100001)"
"502",849,"Harding Park Storage Bldg","99 Harding Rd",94132,"Own",49,"Recreation And Parks",576,-122.486252515,37.718016032,"POINT (-122.48625251499999 37.71801603199998)"
"503",779,"GENEVA AVE./MUNICH SFMTA Operator Bathroom","1380 Geneva Ave",94112,"Own",42,"Municipal Transportation Agency",75,-122.433275606,37.712902002,"POINT (-122.433275606 37.71290200200002)"
"504",811,"Glen Park Rec Center","70 Elk St",94131,"Own",49,"Recreation And Parks",15200,-122.44084569,37.737134828,"POINT (-122.44084569 37.73713482800002)"
"505",1366,"North Deep Well Pump Station","Fulton St & Chain of Lakes Dr",94117,"Own",49,"Recreation And Parks",500,-122.505905531,37.771245031,"POINT (-122.505905531 37.77124503099998)"
"506",649,"Eureka Valley Rec Center","100 Collingwood St",94114,"Own",49,"Recreation And Parks",16250,-122.436412404,37.760170793,"POINT (-122.43641240400001 37.760170792999986)"
"507",756,"Frank McCoppin Elementary","651 06th Ave",94118,"Own",16,"School District (Sfusd)",32700,-122.464232034,37.776304678,"POINT (-122.46423203400002 37.776304677999974)"
"508",831,"Guadalupe Elementary","859 Prague St",94112,"Own",16,"School District (Sfusd)",40777,-122.434499725,37.710134562,"POINT (-122.43449972500002 37.71013456200001)"
"509",513,"Conservatory Bathroom","100 John F Kennedy Dr",94117,"Own",49,"Recreation And Parks",690,-122.460140814,37.773141949,"POINT (-122.460140814 37.77314194899998)"
"510",1352,"Wholesale Produce Market - South Bldg K","2035 Jerrold Ave",94124,"Own",63,"Gsa - Real Estate Division",41231,-122.398056889,37.743065157,"POINT (-122.39805688899997 37.74306515699999)"
"511",1182,"Next Door Shelter","1001 Polk St",94109,"Own",45,"Police Department",37125,-122.420049045,37.786116452,"POINT (-122.42004904499998 37.78611645199999)"
"512",108,"Alamo Square Bathrooms","1081 Fulton St",94117,"Own",49,"Recreation And Parks",500,-122.434337645,37.776069505,"POINT (-122.43433764500003 37.77606950500001)"
"513",1944,"Pier 49 - The Crab Station (Wharf J-1)","2803 Taylor St",94133,"Own",46,"Port",480,-122.416564715,37.808899168,"POINT (-122.41656471499999 37.80889916799998)"
"514",1065,"Masonry Shop","100 Martin Luther King Dr",94117,"Own",49,"Recreation And Parks",483,-122.462370103,37.768661349,"POINT (-122.46237010300001 37.76866134900001)"
"515",168,"Bay View Bathrooms","5701 03rd St",94124,"Own",49,"Recreation And Parks",500,-122.393033162,37.725558684,"POINT (-122.393033162 37.72555868400002)"
"516",758,"Franklin Square Maint Facilities","2500 17th St",94110,"Own",49,"Recreation And Parks",1200,-122.408448592,37.765350878,"POINT (-122.40844859200001 37.76535087799999)"
"517",963,"Juvenile Justice Center","375 Woodside Ave",94127,"Own",21,"Juvenile Probation",82551,-122.452747264,37.746095555,"POINT (-122.45274726399998 37.74609555500001)"
"518",1694,"Sutro Elementary","235 12th Ave",94118,"Own",16,"School District (Sfusd)",32860,-122.471451607,37.783603441,"POINT (-122.471451607 37.783603441000025)"
"519",719,"Fire Station #38","2150 California St",94115,"Own",38,"Fire Department",13400,-122.429880214,37.789718675,"POINT (-122.42988021399998 37.78971867500002)"
"520",38,"25TH ST/POTRERO AVE SFMTA Operator Bathroom","25th St & Potrero Ave",94110,"Own",42,"Municipal Transportation Agency",95,-122.406407975,37.751419965,"POINT (-122.40640797499998 37.751419965000025)"
"521",139,"Bureau of Fire Investigation","1275 3rd St",94158,"Own",38,"Fire Department",60000,-122.389375556,37.772271403,"POINT (-122.389375556 37.77227140299999)"
"522",1714,"SWL 302 Substructure (Wharf J-9)","Pier 47",94133,"Own",46,"Port",26427,-122.418529639,37.808530178,"POINT (-122.41852963899998 37.80853017800001)"
"523",1650,"Trocadero Clubhouse","2899 19th Ave",94116,"Own",49,"Recreation And Parks",4226,-122.477981483,37.736184336,"POINT (-122.47798148300001 37.73618433600001)"
"524",1010,"Leonard R Flynn Elementary","3125 Cesar Chavez St",94110,"Own",16,"School District (Sfusd)",52700,-122.411965332,37.747737592,"POINT (-122.41196533200002 37.74773759200002)"
"525",1141,"Moscone Esplanade Ballroom","747 Howard St",94103,"Own",80,"Gsa - Convention Facilities Management",126000,-122.399986108,37.78376808,"POINT (-122.39998610800001 37.783768080000016)"
"526",3281,"424 Octavia - Parcel L","424 Octavia St",94102,"Own",63,"Gsa - Real Estate Division",13595,-122.424115863,37.776106629,"POINT (-122.424115863 37.776106629000026)"
"527",11,"Bayview Opera House","4705 03rd St",94124,"Own",35,"Arts Commission",14000,-122.390205184,37.735157075,"POINT (-122.39020518400002 37.73515707500002)"
"528",183,"Bessie Carmichael / Filipino Education Ctr (6-8)","824 Harrison St",94107,"Own",16,"School District (Sfusd)",13654,-122.40047916,37.780554883,"POINT (-122.40047915999997 37.78055488299998)"
"529",1701,"SWL 302 - Alioto Fish Co.","440 Jefferson St",94133,"Own",46,"Port",15820,-122.419856047,37.807916182,"POINT (-122.419856047 37.807916181999985)"
"530",1054,"Marina Green Bathrooms East","150 Marina Blvd",94123,"Own",49,"Recreation And Parks",500,-122.434539797,37.806465921,"POINT (-122.43453979700001 37.80646592099998)"
"531",198,"Brooks Hall","30 Dr Carlton B Goodlett Pl",94102,"Own",63,"Gsa - Real Estate Division",114789,-122.417954464,37.779079852,"POINT (-122.41795446399999 37.779079851999995)"
"532",806,"Gilman Clubhouse","993 Gilman Ave",94124,"Own",49,"Recreation And Parks",1308,-122.38833114,37.716828649,"POINT (-122.38833113999999 37.71682864899998)"
"533",846,"Harding Park Equipment Storage","99 Harding Rd",94132,"Own",49,"Recreation And Parks",2280,-122.48548696,37.718999875,"POINT (-122.48548696 37.71899987500001)"
"534",1996,"Pier 70 - SWL 349 - Beth Street Washroom & Locker, Bldg. #24","420 22nd St",94107,"Own",46,"Port",3432,-122.38300092,37.760392021,"POINT (-122.38300091999997 37.76039202099997)"
"535",1072,"Matthew Boxer Stadium","100 Sergeant John V Young St",94112,"Own",49,"Recreation And Parks",2281,-122.445036601,37.726101512,"POINT (-122.44503660100003 37.726101512000014)"
"536",966,"KEARNY ST/THE EMBARCADERO SFMTA Operator Bathroom","2099 Kearny St",94133,"Own",77,"Public Works",75,-122.40739935,37.8071524,"POINT (-122.40739934999999 37.80715240000001)"
"537",1969,"Pier 70 - Pier 68 - Checkhouse #1, Bldg. #122","590 20TH ST",94107,"Own",46,"Port",1,-122.385952312,37.762030099,"POINT (-122.38595231199997 37.762030099000015)"
"538",1026,"Longfellow Elementary","755 Morse St",94112,"Own",16,"School District (Sfusd)",40500,-122.447126164,37.710234817,"POINT (-122.447126164 37.710234817000014)"
"539",125,"Anglers Lodge Parking Lot Trailer","Angler's Lodge",94121,"Own",49,"Recreation And Parks",1440,-122.496248851,37.768147153,"POINT (-122.49624885100002 37.76814715299997)"
"540",671,"Fairmount Elementary","65 Chenery St",94131,"Own",16,"School District (Sfusd)",60960,-122.425008989,37.740459576,"POINT (-122.42500898899999 37.74045957599998)"
"541",706,"Fire Station #23","1348 45th Ave",94122,"Own",38,"Fire Department",12000,-122.504710035,37.761405733,"POINT (-122.50471003500002 37.761405733000004)"
"542",1308,"Police Academy","350 Amber Dr",94124,"Own",45,"Police Department",19332,-122.441482849,37.744195992,"POINT (-122.44148284900001 37.744195992000016)"
"543",1933,"Pier 47 - Scomas Storage Shed","The Embarcadero",94133,"Own",46,"Port",270,-122.418529639,37.808530178,"POINT (-122.41852963899998 37.80853017800001)"
"544",1721,"SWL 303 - The Bay Company, Hoppe, Arthur N.","496 Jefferson St",94133,"Own",46,"Port",8339,-122.420581375,37.807772581,"POINT (-122.42058137499998 37.807772580999995)"
"545",1617,"South Sunset Clubhouse","2601 40th Ave",94116,"Own",49,"Recreation And Parks",1500,-122.498187472,37.738077944,"POINT (-122.49818747199998 37.738077944)"
"546",1889,"Youngblood Coleman Clubhouse","1398 Hudson Ave",94124,"Own",49,"Recreation And Parks",2135,-122.384184382,37.738022288,"POINT (-122.384184382 37.738022288000025)"
"547",1962,"Pier 7 Public Pier","Pier 7",94111,"Own",46,"Port",31300,-122.395618426,37.79934571,"POINT (-122.395618426 37.79934571000001)"
"548",1952,"Pier 54 - Office Bldg","569 Terry A Francois Blvd",94158,"Own",46,"Port",3344,-122.384474581,37.769992244,"POINT (-122.384474581 37.76999224399998)"
"549",657,"Fac. 274-175 - Ferry Building Clock Tower","San Francisco Ferry Bldg",94105,"Own",46,"Port",298488,-122.393613518,37.79546359,"POINT (-122.393613518 37.79546359)"
"550",1222,"Palace of the Legion of Honor","100 34th Ave",94121,"Own",58,"Fine Arts Museums",117000,-122.500734606,37.784568026,"POINT (-122.50073460599998 37.78456802599999)"
"551",1101,"MICHELANGELO PLAYGROUND CTR","1055 Greenwich St",94133,"Own",49,"Recreation And Parks",629,-122.416931874,37.80121448,"POINT (-122.416931874 37.80121448)"
"552",1965,"Pier 70 - Pier 68 - Blast Shed Bldg. #150","590 20TH ST",94107,"Own",46,"Port",600,-122.385952312,37.762030099,"POINT (-122.38595231199997 37.762030099000015)"
"553",1215,"Paint & Carpentry Shop","100 Martin Luther King Dr",94117,"Own",49,"Recreation And Parks",1200,-122.462511066,37.768630933,"POINT (-122.46251106599999 37.768630933)"
"554",1076,"McKinley Elementary","1025 14th St",94114,"Own",16,"School District (Sfusd)",45160,-122.436454854,37.766971844,"POINT (-122.43645485399998 37.76697184400001)"
"555",1705,"SWL 302 - Firewood Cafe","Pier 47",94133,"Own",46,"Port",4000,-122.419,37.8085,"POINT (-122.41899999999998 37.80849999999998)"
"556",572,"Curtis E. Green LRV Facility Annex Bldg","425 GENEVA AVE",94112,"Own",42,"Municipal Transportation Agency",34850,-122.446467123,37.722051241,"POINT (-122.44646712299999 37.722051240999974)"
"557",1063,"Marshall Elementary","1575 15th St",94103,"Own",16,"School District (Sfusd)",34300,-122.419007473,37.766455231,"POINT (-122.41900747300002 37.76645523100001)"
"558",70,"Streetlight Warehouse","639 Bryant St",94107,"Own",42,"Municipal Transportation Agency",6400,-122.398609575,37.778658136,"POINT (-122.39860957500002 37.77865813599999)"
"559",138,"Argonne Elementary","680 18th Ave",94118,"Own",16,"School District (Sfusd)",52000,-122.476546817,37.775305052,"POINT (-122.47654681699998 37.77530505200002)"
"560",1633,"St Mary's Rec Center","95 Justin Dr",94112,"Own",49,"Recreation And Parks",23307,-122.421709805,37.734235341,"POINT (-122.42170980499998 37.73423534099999)"
"561",763,"Office of the Chief Medical Examiner Building","1 Newhall St",94124,"Own",65,"Gsa - Medical Examiner",46000,-122.377752351,37.739565919,"POINT (-122.37775235100003 37.73956591899997)"
"562",490,"Civic Center Secondary at John Swett Campus","727 Golden Gate Ave",94102,"Own",16,"School District (Sfusd)",29060,-122.422877858,37.78031379,"POINT (-122.42287785799999 37.78031378999998)"
"563",1139,"MOSCONE CENTER Parking Garage","255 03rd St",94103,"Own",42,"Municipal Transportation Agency",255444,-122.399367228,37.784711537,"POINT (-122.39936722800002 37.78471153700002)"
"564",895,"Independence High School","1350 7th Ave",94122,"Own",16,"School District (Sfusd)",30114,-122.463851641,37.763218817,"POINT (-122.46385164100002 37.763218816999995)"
"565",1960,"Pier 7 - The Waterfront Restaurant","The Embarcadero",94111,"Own",46,"Port",6054,-122.395618426,37.79934571,"POINT (-122.395618426 37.79934571000001)"
"566",1289,"Pier 27  - Port’s primary cruise terminal.","1098 The Embarcadero",94111,"Own",46,"Port",420690,-122.401081639,37.805332873,"POINT (-122.40108163899998 37.805332873)"
"567",486,"Civic Center Substation","1150 Market St",94102,"Own",42,"Municipal Transportation Agency",3471,-122.4141041,37.779593869,"POINT (-122.41410409999997 37.779593868999996)"
"568",3167,"Building 33 - Treasure Island","401 13TH ST",94130,"Own",114,"Treasure Island Development Authority",10604,-122.373708517,37.828020221,"POINT (-122.37370851700001 37.828020220999974)"
"569",1137,"Sunnyside Conservatory","236 Monterey Blvd",94131,"Own",49,"Recreation And Parks",1536,-122.440823995,37.7318608,"POINT (-122.44082399500002 37.73186079999999)"
"570",1140,"MOSCONE CENTER (South)","747 Howard St",94103,"Own",80,"Gsa - Convention Facilities Management",650000,-122.401262868,37.783864032,"POINT (-122.401262868 37.783864032)"
"571",1324,"Portsmouth Square Clubhouse","733 Kearny St",94111,"Own",49,"Recreation And Parks",1860,-122.405585735,37.794593054,"POINT (-122.40558573499999 37.79459305400002)"
"572",3297,"Kirkland Motor Coach Facility (Maint. Bldg)","151 Beach St",94133,"Own",42,"Municipal Transportation Agency",6316,-122.411329365,37.807617831,"POINT (-122.41132936499997 37.807617831000016)"
"573",162,"Bandstand Public Restrooms","50 Hagiwara Tea Garden Dr",94117,"Own",49,"Recreation And Parks",1276,-122.46874094,37.769745554,"POINT (-122.46874093999998 37.769745553999996)"
"574",141,"Former SFAC Galleries Window Installation Site","155 Grove St",94102,"Own",63,"Gsa - Real Estate Division",4186,-122.419069699,37.778078764,"POINT (-122.41906969899998 37.778078763999986)"
"575",453,"Central Station","766 Vallejo St",94133,"Own",45,"Police Department",8000,-122.409862909,37.798645319,"POINT (-122.40986290900003 37.798645319)"
"576",1730,"SWL 322 ABC TV","900 Front St",94111,"Own",46,"Port",169620,-122.399569019,37.800220916,"POINT (-122.39956901900001 37.800220916)"
"577",1667,"Strybing Lath House","1199 09th Ave",94117,"Own",49,"Recreation And Parks",2196,-122.472617189,37.767369596,"POINT (-122.472617189 37.76736959599998)"
"578",477,"Community Health Network Headquarters","2789 25th St",94110,"Own",72,"Public Health",60000,-122.405662514,37.751459655,"POINT (-122.40566251400003 37.75145965500002)"
"579",1775,"Tom Waddell Health Clinic","50 Dr Tom Waddell Pl",94102,"Own",72,"Public Health",15000,-122.418794017,37.777977674,"POINT (-122.41879401699998 37.777977674)"
"580",593,"Downtown Ferry Terminal","San Francisco Ferry Bldg",94105,"Own",46,"Port",12830,-122.393338572,37.795553433,"POINT (-122.393338572 37.79555343300001)"
"581",616,"Forensic Service/Traffic Company","1995 Evans Ave",94124,"Own",45,"Police Department",44210,-122.395886639,37.746974761,"POINT (-122.39588663900003 37.74697476099999)"
"582",935,"Jean Parker Elementary","840 Broadway",94133,"Own",16,"School District (Sfusd)",46000,-122.411053119,37.797643232,"POINT (-122.41105311899997 37.797643231999984)"
"583",155,"Balboa Park Community Pool","73 Havelock St",94112,"Own",49,"Recreation And Parks",19925,-122.443183356,37.726346339,"POINT (-122.44318335600002 37.726346338999974)"
"584",755,"Francisco Middle","2190 Powell St",94133,"Own",16,"School District (Sfusd)",104897,-122.411021618,37.804360262,"POINT (-122.411021618 37.80436026199999)"
"585",3009,"Mission Cultural Center for Latino Arts","2868 Mission St",94110,"Own",35,"Arts Commission",32230,-122.418570446,37.751004618,"POINT (-122.41857044599999 37.751004618000024)"
"586",1180,"Music Concourse Garage","10th Ave & Fulton St",94122,"Own",49,"Recreation And Parks",3e+05,-122.467487559,37.770635532,"POINT (-122.467487559 37.77063553199997)"
"587",1724,"SWL 316 Houstons Restaurant","1800 Montgomery St",94111,"Own",46,"Port",12622,-122.40511883,37.805970524,"POINT (-122.40511882999999 37.805970523999974)"
"588",1733,"SWL 345 - SF Boat Works Storage/The Ramp","835 Terry A Francois Blvd",94158,"Own",46,"Port",6400,-122.386873372,37.764207725,"POINT (-122.38687337200003 37.764207725000006)"
"589",769,"Garfield Square Community Pool","3100 26th St",94110,"Own",49,"Recreation And Parks",18840,-122.412440329,37.749946506,"POINT (-122.41244032899999 37.749946506000015)"
"590",1598,"Silver Terrace Fieldhouse/Bleachers","1700 Silver Ave",94124,"Own",49,"Recreation And Parks",6600,-122.402997016,37.732942304,"POINT (-122.40299701599997 37.732942304000005)"
"591",1313,"POLK-BUSH Parking Garage","1399 Bush St",94109,"Own",42,"Municipal Transportation Agency",73860,-122.419988094,37.788468402,"POINT (-122.41998809400002 37.78846840199998)"
"592",167,"BAY ST/TAYLOR ST SFMTA Operator Bathroom","Bay St & Taylor St",94133,"Own",42,"Municipal Transportation Agency",330,-122.41525032,37.805140447,"POINT (-122.41525031999998 37.805140446999985)"
"593",896,"Ingleside Branch","1298 Ocean Ave",94112,"Own",48,"Public Library",6100,-122.45626483,37.724057087,"POINT (-122.45626483000001 37.724057087000006)"
"594",552,"Creative Arts Charter","1601 Turk St",94115,"Own",16,"School District (Sfusd)",33117,-122.435896039,37.779881,"POINT (-122.435896039 37.77988099999999)"
"595",917,"James Lang Fieldhouse & Bleachers","1016 Laguna St",94102,"Own",49,"Recreation And Parks",4284,-122.425335826,37.781225602,"POINT (-122.42533582599998 37.781225602000006)"
"596",937,"Jefferson Elementary","1725 Irving St",94122,"Own",16,"School District (Sfusd)",42434,-122.476814539,37.76329393,"POINT (-122.47681453899997 37.763293929999975)"
"597",7,"16th ST./FOLSOM SFMTA Operator Bathroom","16th St & Folsom St",94103,"Own",42,"Municipal Transportation Agency",75,-122.415116701,37.765492206,"POINT (-122.41511670099999 37.765492205999976)"
"598",529,"Convention & Visitors Bureau","920 Market St",94102,"Own",77,"Public Works",4860,-122.40819074,37.784289366,"POINT (-122.40819074000001 37.784289365999996)"
"599",630,"Electrical & Iron Shops","100 Martin Luther King Dr",94117,"Own",49,"Recreation And Parks",4488,-122.461981977,37.768428617,"POINT (-122.461981977 37.768428616999984)"
"600",2021,"Pier 90 - Old Powerhouse","Cargo Way",94124,"Own",46,"Port",1576,-122.377797369,37.743831172,"POINT (-122.377797369 37.743831172)"
"601",890,"HYDE ST../BEACH ST. SFMTA Operator Bathroom","Hyde St & Beach St",94109,"Own",42,"Municipal Transportation Agency",75,-122.421106367,37.806921075,"POINT (-122.421106367 37.80692107499999)"
"602",1014,"Lincoln Park Pump Station","36th Ave & Clement St",94121,"Own",49,"Recreation And Parks",324,-122.496691388,37.781706415,"POINT (-122.49669138799999 37.781706414999974)"
"603",809,"Glen Park Elementary","151 Lippard Ave",94131,"Own",16,"School District (Sfusd)",45200,-122.435786588,37.733096563,"POINT (-122.43578658799998 37.733096563000004)"
"604",850,"HARDING SPORTS CENTER*","99 Harding Rd",94132,"Own",49,"Recreation And Parks",1000,-122.499441405,37.725507977,"POINT (-122.49944140500003 37.72550797700001)"
"605",644,"Equestrian Ctr. Shed 2","1451 John F Kennedy Dr",94117,"Own",49,"Recreation And Parks",1200,-122.494292785,37.769094592,"POINT (-122.49429278500003 37.76909459199999)"
"606",938,"Jefferson Square Bathrooms","997 Gough St",94109,"Own",49,"Recreation And Parks",325,-122.425489884,37.781548373,"POINT (-122.425489884 37.78154837300002)"
"607",1479,"SF Community School","115 Excelsior Ave",94112,"Own",16,"School District (Sfusd)",66900,-122.432267247,37.725925521,"POINT (-122.43226724700003 37.72592552100002)"
"608",1708,"SWL 302 - United Shellfish Warehouse","Pier 47",94133,"Own",46,"Port",2310,-122.418529639,37.808530178,"POINT (-122.41852963899998 37.80853017800001)"
"609",1475,"Sewage Pumping Station","3700 Lyon St",94117,"Own",49,"Recreation And Parks",4500,-122.448544664,37.806398234,"POINT (-122.448544664 37.80639823400003)"
"610",1341,"Presidio Division Bldg","949 Presidio Ave",94115,"Own",42,"Municipal Transportation Agency",158381,-122.446507201,37.783284042,"POINT (-122.44650720099997 37.78328404199999)"
"611",652,"Excelsior Clubhouse","579  Madrid St",94112,"Own",49,"Recreation And Parks",2255,-122.43360156,37.720247113,"POINT (-122.43360156 37.72024711300003)"
"612",1820,"Vis Vly Grnwy Bathrooms*","159 Teddy Ave",94134,"Own",49,"Recreation And Parks",500,-122.40566,37.714063,"POINT (-122.40566000000001 37.71406300000001)"
"613",1912,"Pier 35 – Port’s secondary cruise terminal.","1454 The Embarcadero",94133,"Own",46,"Port",210225,-122.406351516,37.808579926,"POINT (-122.40635151599997 37.80857992599999)"
"614",3305,"Wholesale Produce Market - 455 Toland","455 Toland St",94124,"Own",63,"Gsa - Real Estate Division",17200,-122.398115167,37.744348662,"POINT (-122.39811516700001 37.74434866199999)"
"615",127,"Anna E. Waden Branch Library (Bayview)","5075 03rd St",94124,"Own",48,"Public Library",9527,-122.391086201,37.732484671,"POINT (-122.39108620100001 37.73248467100001)"
"616",48,"3rd St & Oakdale Ave SFMTA Operator Bathroom","4849 3RD ST",94124,"Own",42,"Municipal Transportation Agency",75,-122.390647041,37.734384212,"POINT (-122.39064704100002 37.73438421200001)"
"617",659,"Fac. 278 Agriculture Building","San Francisco Ferry Bldg",94105,"Own",46,"Port",22186,-122.3921561,37.794131382,"POINT (-122.39215610000002 37.79413138199999)"
"618",518,"Conservatory Greenhouse 6","100 John F Kennedy Dr",94118,"Own",49,"Recreation And Parks",2708,-122.460501559,37.773058847,"POINT (-122.46050155900002 37.773058847000016)"
"619",1810,"Urban Forestry Restroom","2323 Cesar Chavez St",94124,"Own",77,"Public Works",84,-122.400399438,37.749048585,"POINT (-122.40039943800002 37.749048585000025)"
"620",171,"Bayside Office Space and Warehouse","1550 Evans Ave",94124,"Own",47,"Public Utilities Commission",50593,-122.387127805,37.742876093,"POINT (-122.38712780499998 37.74287609300001)"
"621",43,"30th ST./CHURCH SFMTA Operator Bathroom","310 30th St",94131,"Own",35,"Arts Commission",75,-122.427166827,37.742161531,"POINT (-122.42716682700001 37.74216153100002)"
"622",620,"Dutch Windmill","John F Kennedy Dr & Great Hwy",94117,"Own",49,"Recreation And Parks",5831,-122.509382649,37.770453545,"POINT (-122.50938264899997 37.77045354500001)"
"623",117,"Alta Plaza Maintenance Facilities","2599 Jackson St",94115,"Own",49,"Recreation And Parks",1200,-122.438228171,37.791204987,"POINT (-122.43822817099999 37.791204987000015)"
"624",840,"Hamilton Rec Center","1900 Geary Blvd",94115,"Own",49,"Recreation And Parks",13527,-122.435287737,37.784573673,"POINT (-122.43528773700001 37.78457367300001)"
"625",1910,"Pier 33 1/2 - Bulkhead Building","1398 The Embarcadero",94133,"Own",46,"Port",16452,-122.405545058,37.806904538,"POINT (-122.40554505799997 37.806904538000026)"
"626",913,"JACKSON ST/ FILLMORE SFMTA Operator Bathroom","2370 Jackson St",94115,"Own",42,"Municipal Transportation Agency",75,-122.434055389,37.79262844,"POINT (-122.43405538899998 37.79262843999999)"
"627",166,"BAY ST./FILLMORE ST. SFMTA Operator Bathroom","3510 Fillmore St",94123,"Own",42,"Municipal Transportation Agency",75,-122.436348674,37.802189058,"POINT (-122.43634867399999 37.80218905800001)"
"628",1044,"Main Library","100 Larkin St",94102,"Own",48,"Public Library",376000,-122.41615205,37.779081776,"POINT (-122.41615205 37.779081776)"
"629",1407,"Richmond Station","461 06th Ave",94118,"Own",45,"Police Department",13000,-122.464460729,37.780001292,"POINT (-122.464460729 37.78000129200001)"
"630",175,"Beach Chalet","1000 Great Hwy",94117,"Own",49,"Recreation And Parks",15639,-122.510205667,37.769460178,"POINT (-122.51020566699998 37.769460177999974)"
"631",1890,"Zaida T Rodriguez Early Education","421 Bartlett St",94110,"Own",16,"School District (Sfusd)",1800,-122.41917118,37.750148268,"POINT (-122.41917117999998 37.750148267999975)"
"632",820,"Grattan Clubhouse","1180 Stanyan St",94117,"Own",49,"Recreation And Parks",1854,-122.451987158,37.762656643,"POINT (-122.45198715800001 37.762656643000014)"
"633",1307,"Plumbing Shop","100 Martin Luther King Dr",94117,"Own",49,"Recreation And Parks",4800,-122.462322461,37.768741463,"POINT (-122.46232246099999 37.768741463000026)"
"634",3032,"LAGUNA HONDA SUBSTATION","375 Laguna Honda Blvd",94116,"Own",72,"Public Health",5000,-122.458643898,37.748374955,"POINT (-122.45864389799999 37.748374954999974)"
"635",802,"GGP Maintenance Bldg","970 47th Ave",94121,"Own",49,"Recreation And Parks",432,-122.506578583,37.769037662,"POINT (-122.50657858300002 37.76903766200002)"
"636",1896,"Pier 23 1/2 Pier 23 Cafe","The Embarcadero",94111,"Own",46,"Port",1646,-122.400801056,37.803371666,"POINT (-122.40080105599998 37.803371665999975)"
"637",1821,"Visitacion Valley Branch Library","201 Leland Ave",94134,"Own",48,"Public Library",9945,-122.407884226,37.712453206,"POINT (-122.40788422600002 37.71245320600002)"
"638",169,"BAYSHORE BLVD/SUNNYDALE SFMTA Operator Bathroom","Bay Shore Blvd & Sunnydale Ave",94134,"Own",42,"Municipal Transportation Agency",75,-122.404785013,37.708853723,"POINT (-122.40478501299998 37.708853723000004)"
"639",1666,"Strybing Greenhouse","1199 09th Ave",94117,"Own",49,"Recreation And Parks",2200,-122.471056493,37.766128673,"POINT (-122.47105649299999 37.766128673000026)"
"640",1314,"Polo Field Bathroom","1451 John F Kennedy Dr",94117,"Own",49,"Recreation And Parks",3432,-122.49456935,37.769160815,"POINT (-122.49456935 37.76916081500002)"
"641",1037,"LRV Station-Powell","891 Market St",94104,"Own",42,"Municipal Transportation Agency",26751,-122.407729368,37.784300208,"POINT (-122.40772936799999 37.78430020799999)"
"642",545,"County Fair Building -  Hall of Flowers","1199 09th Ave",94122,"Own",49,"Recreation And Parks",21352,-122.46713568,37.76655521,"POINT (-122.46713568000001 37.76655520999998)"
"643",1715,"SWL 302 United Shellfish Processing","Pier 47",94133,"Own",46,"Port",1714,-122.418529639,37.808530178,"POINT (-122.41852963899998 37.80853017800001)"
"644",1897,"Pier 28 - Bulkhead/Shed Building","The Embarcadero",94105,"Own",46,"Port",77088,-122.386363719,37.788124026,"POINT (-122.38636371899997 37.78812402599999)"
"645",2008,"Pier 70 - SWL 349 Traffic Department Bldg. #12 & #15","420 22nd St",94107,"Own",46,"Port",78116,-122.382939438,37.759465924,"POINT (-122.382939438 37.75946592399998)"
"646",612,"Dr Charles R Drew Elementary","50 Pomona St",94124,"Own",16,"School District (Sfusd)",55234,-122.393995378,37.731322072,"POINT (-122.393995378 37.73132207200001)"
"647",3016,"Rossi maintenance facility 2","600 Arguello Blvd",94118,"Own",49,"Recreation And Parks",672,-122.457115641,37.779394585,"POINT (-122.45711564099997 37.77939458499998)"
"648",1394,"Redding Elementary","1421 Pine St",94109,"Own",16,"School District (Sfusd)",26100,-122.419243391,37.789577549,"POINT (-122.41924339100001 37.789577549)"
"649",575,"Daniel Webster Elementary","465 Missouri St",94107,"Own",16,"School District (Sfusd)",42800,-122.395976592,37.760393791,"POINT (-122.39597659200001 37.76039379100001)"
"650",500,"Cleveland Elementary","455 Athens St",94112,"Own",16,"School District (Sfusd)",34000,-122.428880085,37.720630166,"POINT (-122.428880085 37.72063016599998)"
"651",929,"Japanese Tea Garden Giftshop","75 Hagiwara Tea Garden Dr",94117,"Own",49,"Recreation And Parks",1690,-122.469685143,37.770018603,"POINT (-122.46968514299999 37.77001860299998)"
"652",1276,"Pier 2 - Sinbads","141 The Embarcadero",94105,"Own",46,"Port",6350,-122.391941343,37.794665435,"POINT (-122.39194134299998 37.79466543500001)"
"653",3236,"490 South Van Ness Ave Housing","490 South Van Ness Ave",94103,"Own",103,"Mayor",0,-122.417738687,37.765472757,"POINT (-122.417738687 37.765472757)"
"654",1417,"Rooftop Alternative (K-4 Burnett Campus)","445 Burnett Ave",94131,"Own",16,"School District (Sfusd)",23300,-122.443916924,37.75499521,"POINT (-122.443916924 37.754995210000004)"
"655",470,"Chinese Immersion Elementary at DeAvila","1250 Waller St",94117,"Own",16,"School District (Sfusd)",58582,-122.444348481,37.769733972,"POINT (-122.44434848100002 37.76973397199998)"
"656",699,"Fire Station #17","1295 Shafter Ave",94124,"Own",38,"Fire Department",12100,-122.385066735,37.727526621,"POINT (-122.38506673500001 37.72752662099998)"
"657",1924,"Pier 41 1/2 - Blue&Gold Bldg.","The Embarcadero",94133,"Own",46,"Port",14793,-122.387611636,37.779935517,"POINT (-122.38761163599997 37.77993551700001)"
"658",869,"Hilltop County Community High / Sunshine Building","1325 Florida St",94110,"Own",16,"School District (Sfusd)",61442,-122.409396554,37.750432484,"POINT (-122.40939655400001 37.75043248399999)"
"659",29,"21st - Geary Parking Lot","5732 Geary Blvd",94121,"Own",42,"Municipal Transportation Agency",6750,-122.48105317,37.780568388,"POINT (-122.48105317 37.780568388000006)"
"660",547,"County Jail","425 07th St",94103,"Own",15,"Sheriff",50000,-122.404922605,37.775232123,"POINT (-122.40492260500002 37.77523212300002)"
"661",504,"Commodore Sloat Elementary","50 Darien Way",94127,"Own",16,"School District (Sfusd)",59200,-122.47056914,37.731670343,"POINT (-122.47056914000001 37.73167034300002)"
"662",2010,"Pier 70 - SWL 349 Warehouse - Bldg.2","420 22nd St",94107,"Own",46,"Port",96804,-122.38300092,37.760392021,"POINT (-122.38300091999997 37.76039202099997)"
"663",1317,"Polo Field South Training Qtrs","1451 John F Kennedy Dr",94117,"Own",49,"Recreation And Parks",1200,-122.492407657,37.767053597,"POINT (-122.492407657 37.76705359699997)"
"664",24,"19th - Ocean Parking Lot","3000 19th Ave",94132,"Own",42,"Municipal Transportation Agency",5920,-122.474610998,37.732031144,"POINT (-122.474610998 37.73203114400002)"
"665",178,"BERNAL SUBSTATION","425 Andover St",94110,"Own",42,"Municipal Transportation Agency",1750,-122.416308283,37.73810474,"POINT (-122.41630828299998 37.73810473999998)"
"666",1318,"Polo Fields and Stadium","1451 John F Kennedy Dr",94117,"Own",49,"Recreation And Parks",5000,-122.492686062,37.768241993,"POINT (-122.49268606200002 37.768241993000004)"
"667",718,"Fire Station #37","798 Wisconsin St",94107,"Own",38,"Fire Department",6950,-122.399243851,37.757417782,"POINT (-122.399243851 37.757417782000005)"
"668",1946,"Pier 5 1/2 - Bulkhead Building","Pier 5 1/2",94111,"Own",46,"Port",18303,-122.396387105,37.798333599,"POINT (-122.39638710499997 37.79833359899999)"
"669",1375,"Raoul Wallenberg High","40 Vega St",94118,"Own",16,"School District (Sfusd)",62840,-122.44675749,37.77984811,"POINT (-122.44675748999998 37.77984810999999)"
"670",1009,"Leola M Havard Early Education","1520 Oakdale Ave",94124,"Own",16,"School District (Sfusd)",74100,-122.388815665,37.734050141,"POINT (-122.38881566499998 37.73405014100001)"
"671",1190,"Northern Station","1125 Fillmore St",94115,"Own",45,"Police Department",18000,-122.432390435,37.780161141,"POINT (-122.432390435 37.78016114100001)"
"672",704,"Fire Station #21","1443 Grove St",94117,"Own",38,"Fire Department",8000,-122.440271768,37.775409721,"POINT (-122.440271768 37.77540972100002)"
"673",1281,"Pier 23 - Bulkhead/Shed Building","The Embarcadero",94111,"Own",46,"Port",100567,-122.399544392,37.803746972,"POINT (-122.399544392 37.803746972)"
"674",977,"KING SUBSTATION","2 Berry St",94107,"Own",42,"Municipal Transportation Agency",1251,-122.388770914,37.779680983,"POINT (-122.38877091400002 37.77968098299999)"
"675",1683,"Sunset Elementary","1920 41st Ave",94116,"Own",16,"School District (Sfusd)",40150,-122.499522785,37.750593173,"POINT (-122.49952278500001 37.75059317300003)"
"676",3034,"SWL 302 Castagnola Rest.","286 Jefferson St",94133,"Own",46,"Port",14806,-122.416564715,37.808899168,"POINT (-122.41656471499999 37.80889916799998)"
"677",493,"Claire Lilienthal (3-8 Winfield Scott Campus)","3630 Divisadero St",94123,"Own",16,"School District (Sfusd)",34000,-122.443197557,37.803218932,"POINT (-122.44319755700002 37.80321893199999)"
"678",3306,"Wholesale Produce Market - 850 Rankin","850 Rankin St",94124,"Own",63,"Gsa - Real Estate Division",82480,-122.394875999,37.742106006,"POINT (-122.39487599900002 37.74210600599997)"
"679",817,"Golden Gateway Parking Garage","250 Clay St",94111,"Own",42,"Municipal Transportation Agency",226800,-122.398909704,37.795622202,"POINT (-122.398909704 37.795622202000004)"
"680",876,"Horseshoe Pits Bathroom","Stanyan St & Fulton St",94117,"Own",49,"Recreation And Parks",264,-122.455980337,37.773754083,"POINT (-122.45598033700003 37.77375408299997)"
"681",112,"Alice Chalmers Clubhouse","670 Brunswick St",94112,"Own",49,"Recreation And Parks",2505,-122.447003258,37.709531742,"POINT (-122.447003258 37.709531742000024)"
"682",738,"Fire Station #35 - Fireboat Headquarters","Pier 22 1/2",94105,"Own",38,"Fire Department",2500,-122.388440069,37.790221026,"POINT (-122.38844006900001 37.79022102599998)"
"683",1706,"SWL 302 - Pompeis Grotto","340 Jefferson St",94133,"Own",46,"Port",4140,-122.4180534,37.808093473,"POINT (-122.41805340000002 37.808093472999985)"
"684",1416,"Rooftop Alternative (5-8 Mayeda Campus)","500 Corbett Ave",94114,"Own",16,"School District (Sfusd)",21000,-122.44448963,37.757408304,"POINT (-122.44448963000002 37.75740830400002)"
"685",1269,"Pier 17 - Shed Building","The Embarcadero",94111,"Own",46,"Port",117001,-122.398174866,37.802159251,"POINT (-122.39817486599998 37.80215925099998)"
"686",713,"Fire Station #31","441 12th Ave",94118,"Own",38,"Fire Department",8500,-122.470911415,37.779840105,"POINT (-122.47091141499999 37.779840105000005)"
"687",1627,"Spring Valley Elementary","1451 Jackson St",94109,"Own",16,"School District (Sfusd)",50400,-122.41880012,37.794020021,"POINT (-122.41880012000001 37.794020020999994)"
"688",1647,"Stern Grove - Dressing Rooms 1, 2 & 3","2899 19TH AVE",94132,"Own",49,"Recreation And Parks",1200,-122.479262979,37.736145532,"POINT (-122.479262979 37.73614553200002)"
"689",2001,"Pier 70 - SWL 349 - Test Room, Bldg. #23","420 22nd St",94107,"Own",46,"Port",4356,-122.38300092,37.760392021,"POINT (-122.38300091999997 37.76039202099997)"
"690",2003,"Pier 70 - SWL 349 Building #6 (condemned)","420 22nd St",94107,"Own",46,"Port",34707,-122.38300092,37.760392021,"POINT (-122.38300091999997 37.76039202099997)"
"691",784,"George Washington High","600 32nd Ave",94121,"Own",16,"School District (Sfusd)",228800,-122.491022973,37.77787768,"POINT (-122.49102297299999 37.77787768000002)"
"692",1926,"Pier 43 1/2 - Franciscan Restaurant","The Embarcadero",94133,"Own",46,"Port",14330,-122.414588828,37.80906673,"POINT (-122.41458882799998 37.809066729999984)"
"693",1053,"Marina Branch Library","1890 Chestnut St",94123,"Own",48,"Public Library",7633,-122.434135665,37.801373632,"POINT (-122.43413566499999 37.80137363199998)"
"694",643,"Equestrian Ctr Shed 1","1451 John F Kennedy Dr",94117,"Own",49,"Recreation And Parks",4824,-122.494430372,37.769420943,"POINT (-122.49443037200001 37.769420943)"
"695",184,"Bessie Carmichael Elementary","375 07th St",94103,"Own",16,"School District (Sfusd)",56358,-122.406688003,37.776104576,"POINT (-122.406688003 37.77610457600002)"
"696",93,"African American Art and Culture Complex","762 Fulton St",94115,"Own",35,"Arts Commission",34031,-122.429235422,37.778280764,"POINT (-122.42923542199998 37.77828076399999)"
"697",1266,"Pier 15/17 - Office on Marginal Wharf","The Embarcadero",94111,"Own",46,"Port",1576,-122.397990374,37.801741554,"POINT (-122.39799037400002 37.80174155399999)"
"698",514,"Conservatory Greenhouse 1","100 John F Kennedy Dr",94117,"Own",49,"Recreation And Parks",1932,-122.460384186,37.773120002,"POINT (-122.460384186 37.773120001999985)"
"699",633,"Ellis-O’Farrell Garage","123 OFarrell St",94102,"Own",42,"Municipal Transportation Agency",314549,-122.407093014,37.786061849,"POINT (-122.407093014 37.78606184900002)"
"700",1977,"Pier 70 - Pier 68 - Office Building #104","590 20TH ST",94107,"Own",46,"Port",37641,-122.385952312,37.762030099,"POINT (-122.38595231199997 37.762030099000015)"
"701",1769,"Theresa Mahler CDC","990 Church St",94114,"Own",16,"School District (Sfusd)",5339,-122.428096636,37.755273529,"POINT (-122.42809663600002 37.75527352900002)"
"702",1955,"Pier 54 - Storage Shed","569 Terry A Francois Blvd",94158,"Own",46,"Port",266,-122.384474581,37.769992244,"POINT (-122.384474581 37.76999224399998)"
"703",723,"Fire Station #40","2155 18th Ave",94116,"Own",38,"Fire Department",7350,-122.475269398,37.747610938,"POINT (-122.47526939800002 37.74761093799998)"
"704",1455,"Asawa San Francisco School of the Arts (SOTA)","555 Portola Dr",94131,"Own",16,"School District (Sfusd)",209500,-122.448666798,37.745431364,"POINT (-122.44866679799998 37.74543136400001)"
"705",957,"Junipero Serra Annex CDC","155 Appleton Ave",94110,"Own",16,"School District (Sfusd)",5800,-122.42259917,37.738458258,"POINT (-122.42259917000001 37.73845825799998)"
"706",853,"Harvey Milk Recreational Arts Bldg","50 Scott St",94117,"Own",49,"Recreation And Parks",19446,-122.434564974,37.769457908,"POINT (-122.43456497400001 37.76945790799999)"
"707",1212,"Opera House","301 Van Ness Ave",94102,"Own",53,"War Memorial",315700,-122.420733246,37.778617818,"POINT (-122.420733246 37.77861781799999)"
"708",767,"Garfield Elementary","420 Filbert St",94133,"Own",16,"School District (Sfusd)",33800,-122.406532023,37.801935037,"POINT (-122.40653202300001 37.80193503700002)"
"709",1676,"Sunnyside Clubhouse","233 Melrose Ave",94127,"Own",49,"Recreation And Parks",3212,-122.447214604,37.733667753,"POINT (-122.44721460400001 37.73366775300002)"
"710",702,"Fire Station #2","1340 Powell St",94133,"Own",38,"Fire Department",16920,-122.409879161,37.797034113,"POINT (-122.40987916099999 37.797034112999995)"
"711",478,"Christopher Clubhouse","5210 Diamond Heights Blvd",94131,"Own",49,"Recreation And Parks",2337,-122.440233045,37.743986323,"POINT (-122.44023304500001 37.743986323)"
"712",651,"Excelsior Branch Library","4400 Mission St",94112,"Own",48,"Public Library",8302,-122.43331541,37.727130521,"POINT (-122.43331540999998 37.72713052099999)"
"713",1978,"Pier 70 - Pier 68 - Office/Warehouse Bldg.- Bldg #111","590 20TH ST",94107,"Own",46,"Port",41500,-122.385952312,37.762030099,"POINT (-122.38595231199997 37.762030099000015)"
"714",2092,"Washington/Hyde Maint Facility","1464 Washington St",94109,"Own",49,"Recreation And Parks",6392,-122.417414086,37.794096579,"POINT (-122.41741408600001 37.794096578999984)"
"715",1629,"St Mary's BF Maintenance Shed","95 Justin Dr",94110,"Own",49,"Recreation And Parks",1200,-122.420658026,37.733669798,"POINT (-122.42065802600001 37.733669797999994)"
"716",1651,"Stern Grove Restrooms","2899 19th Ave",94132,"Own",49,"Recreation And Parks",1440,-122.478209845,37.736196077,"POINT (-122.47820984499998 37.73619607699999)"
"717",1033,"Lower Great Hwy Taraval Bathrooms","Great Hwy & Taraval St",94122,"Own",49,"Recreation And Parks",1972,-122.507084158,37.741444609,"POINT (-122.507084158 37.741444608999984)"
"718",1927,"Pier 43 1/2 - Red & White Tours","The Embarcadero",94133,"Own",46,"Port",425,-122.414349185,37.809228661,"POINT (-122.41434918499999 37.80922866100002)"
"719",2020,"Pier 90 - Maintenance Bldg","Cargo Way",94124,"Own",46,"Port",1260,-122.377797369,37.743831172,"POINT (-122.377797369 37.743831172)"
"720",693,"Fire Station #11","3880 26th St",94131,"Own",38,"Fire Department",14000,-122.426485507,37.748782317,"POINT (-122.426485507 37.74878231700001)"
"721",947,"John Yehall Chin Elementary","350 Broadway",94133,"Own",16,"School District (Sfusd)",23100,-122.403217477,37.798610994,"POINT (-122.403217477 37.798610994)"
"722",201,"Bryant Substation - Overhead Power Control","2502 Alameda St",94103,"Own",42,"Municipal Transportation Agency",48000,-122.409889269,37.768552786,"POINT (-122.40988926900002 37.76855278599999)"
"723",1805,"Urban Forestry Center","Overlook Dr & Middle West Dr",94117,"Own",49,"Recreation And Parks",1200,-122.48108143,37.769212688,"POINT (-122.48108143000002 37.76921268799998)"
"724",19,"Human Services Agency (HSA) Headquarters","170 Otis St",94103,"Own",52,"Human Services Agency",171385,-122.421012664,37.770731742,"POINT (-122.42101266399999 37.77073174200001)"
"725",1177,"Murphy Windmill","2100 Martin Luther King Jr Dr",94117,"Own",49,"Recreation And Parks",2640,-122.508689815,37.764979931,"POINT (-122.50868981500003 37.76497993100003)"
"726",1749,"Tenderloin Rec Center","570 Ellis St",94102,"Own",49,"Recreation And Parks",10408,-122.415443579,37.784808871,"POINT (-122.415443579 37.784808870999996)"
"727",1931,"Pier 47 - Scoma Storage Bldg","The Embarcadero",94133,"Own",46,"Port",1247,-122.418529639,37.808530178,"POINT (-122.41852963899998 37.80853017800001)"
"728",1025,"LOMBARD STREET GARAGE","2055 Lombard St",94123,"Own",42,"Municipal Transportation Agency",85000,-122.435154353,37.799691568,"POINT (-122.43515435299997 37.799691568000014)"
"729",1717,"SWL 303 - Cal Shell Fish","420 Jefferson St",94133,"Own",46,"Port",4885,-122.420116284,37.808053161,"POINT (-122.42011628400002 37.808053160999975)"
"730",1297,"Pier 96 - Recycling/LASH Terminal","1000 Amador St",94124,"Own",46,"Port",186604,-122.377797369,37.743831172,"POINT (-122.377797369 37.743831172)"
"731",3042,"Carl Substation","823 CLAYTON ST",94117,"Own",42,"Municipal Transportation Agency",3750,-122.448073267,37.766519012,"POINT (-122.44807326699998 37.766519012)"
"732",940,"Jerry Garcia Amphitheatre Restroom","61 John F Shelley Dr",94112,"Own",49,"Recreation And Parks",900,-122.416908108,37.720889302,"POINT (-122.41690810799997 37.72088930199999)"
"733",1064,"Martin Luther King Jr Pool","5701 03rd St",94124,"Own",49,"Recreation And Parks",23851,-122.393720426,37.725533167,"POINT (-122.39372042600002 37.72553316699998)"
"734",1869,"Willie Woo Woo Wong Clubhouse","850 Sacramento St",94108,"Own",49,"Recreation And Parks",600,-122.407152291,37.793676664,"POINT (-122.40715229099999 37.793676663999975)"
"735",136,"Argonne CDC","750 16th Ave",94118,"Own",16,"School District (Sfusd)",2500,-122.474056963,37.773969511,"POINT (-122.47405696300001 37.77396951100002)"
"736",701,"Fire Station #19","390 Buckingham Way",94132,"Own",38,"Fire Department",11500,-122.478902898,37.727811615,"POINT (-122.478902898 37.72781161500001)"
"737",468,"Chinatown Public Health Center","1490 Mason St",94133,"Own",72,"Public Health",22500,-122.411645548,37.797159146,"POINT (-122.41164554800002 37.79715914600001)"
"738",3022,"Urban Forestry Office Trailer 2","2323 Cesar Chavez St",94124,"Own",77,"Public Works",1224,-122.400399438,37.749048585,"POINT (-122.40039943800002 37.749048585000025)"
"739",892,"Hyde Street Pier - Storage Buildings (3)","2905 Hyde St",94109,"Own",46,"Port",2000,-122.420888694,37.808569471,"POINT (-122.42088869399998 37.808569471)"
"740",887,"HUNTINGTON PARK: RESTROOM","California St & Taylor St",94108,"Own",49,"Recreation And Parks",308,-122.412287236,37.79206494,"POINT (-122.412287236 37.79206493999999)"
"741",1710,"SWL 302 Coast Marine Supply Mat. Storage Bldg","398 Jefferson St",94133,"Own",46,"Port",20915,-122.418529639,37.808530178,"POINT (-122.41852963899998 37.80853017800001)"
"742",871,"Hilltop Park Bathrooms","2 Willie B Kennedy Dr",94124,"Own",49,"Recreation And Parks",442,-122.382554262,37.733070578,"POINT (-122.38255426199999 37.733070578000024)"
"743",124,"Anglers Lodge Maint Bldg","1232 John F Kennedy Dr",94117,"Own",49,"Recreation And Parks",1130,-122.497369057,37.768018436,"POINT (-122.49736905700001 37.76801843599998)"
"744",1966,"Pier 70 - Pier 68 - Boiler/Steam Power House - #103","590 20TH ST",94107,"Own",46,"Port",1860,-122.385952312,37.762030099,"POINT (-122.38595231199997 37.762030099000015)"
"745",1748,"Tenderloin Elementary","627 Turk St",94102,"Own",16,"School District (Sfusd)",61569,-122.419950518,37.781854504,"POINT (-122.41995051800001 37.78185450400002)"
"746",1332,"Potrero Hill Rec Center","801 Arkansas St",94107,"Own",49,"Recreation And Parks",23460,-122.397443117,37.756162625,"POINT (-122.39744311700002 37.756162625)"
"747",2,"Hamilton Family Residence","260 Golden Gate Ave",94102,"Own",45,"Police Department",50000,-122.414973899,37.782010681,"POINT (-122.41497389900002 37.782010680999974)"
"748",1972,"Pier 70 - Pier 68 - Machine Shop - Bldg. #105","590 20TH ST",94107,"Own",46,"Port",20111,-122.385952312,37.762030099,"POINT (-122.38595231199997 37.762030099000015)"
"749",729,"Fire Station #5 - Division 2 Headquarters","1301 Turk St",94115,"Own",38,"Fire Department",12600,-122.43073468,37.780515374,"POINT (-122.43073468 37.780515374000004)"
"750",879,"HSA Medi-Cal Headquarters","1440 Harrison St",94103,"Own",52,"Human Services Agency",56788,-122.412203675,37.771333708,"POINT (-122.412203675 37.771333707999986)"
"751",1285,"Pier 24 1/2 -Bulkhead/Shed Building","The Embarcadero",94105,"Own",46,"Port",28000,-122.387741294,37.789450468,"POINT (-122.38774129400002 37.789450467999984)"
"752",1290,"Pier 27 - Office Annex","The Embarcadero",94111,"Own",46,"Port",3552,-122.402057689,37.805238454,"POINT (-122.402057689 37.805238454000005)"
"753",1346,"Wholesale Produce Market - North Bldg N","1900 Jerrold Ave",94124,"Own",63,"Gsa - Real Estate Division",50600,-122.395576337,37.742897067,"POINT (-122.39557633700002 37.742897067)"
"754",1415,"Roofing Shop","100 Martin Luther King Dr",94117,"Own",49,"Recreation And Parks",1860,-122.462115897,37.768825593,"POINT (-122.46211589699999 37.768825592999974)"
"755",188,"Bill Graham Civic Auditorium","99 Grove St",94102,"Own",63,"Gsa - Real Estate Division",113437,-122.417316473,37.77808301,"POINT (-122.41731647300003 37.77808300999999)"
"756",641,"Epic Roasthouse","369 The Embarcadero",94105,"Own",46,"Port",9000,-122.389370451,37.790828946,"POINT (-122.38937045099999 37.790828945999976)"
"757",515,"Conservatory Greenhouse 2","100 John F Kennedy Dr",94117,"Own",49,"Recreation And Parks",1475,-122.460159737,37.773053053,"POINT (-122.46015973700003 37.77305305300001)"
"758",716,"Fire Station #34","499 41st Ave",94121,"Own",38,"Fire Department",4400,-122.502619095,37.779438629,"POINT (-122.502619095 37.779438629000026)"
"759",698,"Fire Station #16","2251 Greenwich St",94123,"Own",38,"Fire Department",14000,-122.436720291,37.798581854,"POINT (-122.43672029099997 37.79858185400002)"
"760",1258,"PHELAN LOOP   SFMTA Operator Bathroom","7 Phelan Ave",94112,"Own",42,"Municipal Transportation Agency",75,-122.452524993,37.72357825,"POINT (-122.452524993 37.72357825)"
"761",1918,"Pier 39 1/2 Marginal Wharf","2 Beach St",94133,"Own",46,"Port",9068,-122.410837299,37.808790912,"POINT (-122.41083729899998 37.808790912000006)"
"762",928,"Japanese Tea Garden Entry Kiosk","75 Hagiwara Tea Garden Dr",94117,"Own",49,"Recreation And Parks",64,-122.470008256,37.769824092,"POINT (-122.47000825600003 37.76982409200002)"
"763",153,"Balboa High","1126 Cayuga Ave",94112,"Own",16,"School District (Sfusd)",261700,-122.440800363,37.722170716,"POINT (-122.440800363 37.722170715999994)"
"764",987,"Laguna Honda - South Residence","375 Laguna Honda Blvd",94116,"Own",72,"Public Health",156993,-122.455860606,37.748824948,"POINT (-122.45586060599999 37.74882494799999)"
"765",1968,"Pier 70 - Pier 68 - Cable/Electric Shop - Bldg.#38","590 20TH ST",94107,"Own",46,"Port",30546,-122.385952312,37.762030099,"POINT (-122.38595231199997 37.762030099000015)"
"766",1979,"Pier 70 - Pier 68 - Ops. Bldg #102","590 20TH ST",94107,"Own",46,"Port",8428,-122.385952312,37.762030099,"POINT (-122.38595231199997 37.762030099000015)"
"767",958,"Junipero Serra Clubhouse","300 Stonecrest Dr",94132,"Own",49,"Recreation And Parks",1578,-122.474091874,37.725108588,"POINT (-122.47409187400001 37.72510858800001)"
"768",1055,"Marina Green Bathrooms West","800 Marina Blvd",94123,"Own",49,"Recreation And Parks",500,-122.447430863,37.805844132,"POINT (-122.44743086300002 37.805844132000004)"
"769",1487,"SFDPH Central Administrative Office","101 Grove St",94102,"Own",72,"Public Health",104000,-122.418652525,37.778128337,"POINT (-122.41865252500003 37.778128337)"
"770",1772,"Thurgood Marshall High","45 Conkling St",94124,"Own",16,"School District (Sfusd)",149796,-122.40146509,37.735731535,"POINT (-122.40146508999999 37.73573153500001)"
"771",632,"Ella Hill Hutch Community Center","1050 McAllister St",94115,"Own",63,"Gsa - Real Estate Division",20821,-122.429093444,37.779314586,"POINT (-122.42909344399999 37.779314586)"
"772",1485,"SF Public Montessori Elementary","2340 Jackson St",94115,"Own",16,"School District (Sfusd)",64500,-122.433438256,37.79280502,"POINT (-122.43343825599999 37.79280502)"
"773",1579,"Sharon Arts Studio","320 Bowling Green Dr",94117,"Own",49,"Recreation And Parks",11376,-122.458991755,37.768617581,"POINT (-122.458991755 37.768617581)"
"774",658,"Fac. 278 Agriculture Bldg Substructure","San Francisco Ferry Bldg",94105,"Own",46,"Port",38000,-122.393338572,37.795553433,"POINT (-122.393338572 37.79555343300001)"
"775",942,"Joe Dimaggio Clubhouse","651 Lombard St",94133,"Own",49,"Recreation And Parks",3813,-122.412123091,37.802782238,"POINT (-122.41212309100001 37.80278223800002)"
"776",1712,"SWL 302 D&G Co. d.b.a. Lou Blues","300 Jefferson St",94133,"Own",46,"Port",3684,-122.417909004,37.808118977,"POINT (-122.41790900400002 37.80811897699999)"
"777",1589,"Sherman Elementary","1651 Union St",94123,"Own",16,"School District (Sfusd)",56200,-122.426117967,37.797801594,"POINT (-122.42611796699998 37.79780159400002)"
"778",836,"Hamilton Community Pool","1900 Geary Blvd",94115,"Own",49,"Recreation And Parks",25209,-122.435489225,37.7845575,"POINT (-122.43548922500003 37.784557500000005)"
"779",927,"Japanese Tea Garden (gardener shack)","75 Hagiwara Tea Garden Dr",94118,"Own",49,"Recreation And Parks",120,-122.469858109,37.770024677,"POINT (-122.46985810899997 37.77002467699998)"
"780",921,"Japan Center Parking Garage","1610 Geary Blvd",94115,"Own",42,"Municipal Transportation Agency",237566,-122.43038642,37.784936722,"POINT (-122.43038641999999 37.784936722)"
"781",120,"Alvarado Elementary","625 Douglass St",94114,"Own",16,"School District (Sfusd)",51700,-122.438585765,37.753750704,"POINT (-122.43858576500003 37.753750704000026)"
"782",2006,"Pier 70 - SWL 349 SF Shipyard Training Bldg 117","420 22nd St",94107,"Own",46,"Port",30940,-122.38300092,37.760392021,"POINT (-122.38300091999997 37.76039202099997)"
"783",37,"25 Van Ness Ave Building","25 Van Ness Ave",94102,"Own",63,"Gsa - Real Estate Division",152414,-122.419883524,37.775632534,"POINT (-122.419883524 37.77563253400001)"
"784",13,"Central Radio Station","1 Christmas Tree Point Rd",94131,"Own",7,"Technology",5344,-122.446638124,37.75453912,"POINT (-122.446638124 37.754539120000004)"
"785",1986,"Pier 70 - Pier 68 - Substation #6, Bldg. #64","590 20TH ST",94107,"Own",46,"Port",2000,-122.385952312,37.762030099,"POINT (-122.38595231199997 37.762030099000015)"
"786",1643,"STATION N SUBSTATION","1437 09TH AVE",94122,"Own",42,"Municipal Transportation Agency",2508,-122.466317858,37.761313518,"POINT (-122.46631785800002 37.76131351800001)"
"787",865,"Marina Substation","1575 North Point St",94123,"Own",42,"Municipal Transportation Agency",3736,-122.432879094,37.803933342,"POINT (-122.43287909399999 37.80393334199999)"
"788",1551,"SFPD Pistol Range","700 John Muir Dr",94132,"Own",45,"Police Department",10000,-122.499677816,37.720277327,"POINT (-122.49967781599997 37.72027732700002)"
"789",390,"Castro - 18th Parking Lot","457 Castro St",94114,"Own",42,"Municipal Transportation Agency",8433,-122.434607192,37.761719903,"POINT (-122.43460719199999 37.76171990300003)"
"790",1302,"Pine Lake Park Clubhouse","200 Crestlake Dr",94116,"Own",49,"Recreation And Parks",1242,-122.487230978,37.736064569,"POINT (-122.48723097800001 37.73606456900001)"
"791",62,"48th AVE./GEARY BLVD SFMTA Operator Bathroom","48th Ave & Geary Blvd",94121,"Own",42,"Municipal Transportation Agency",150,-122.50949695,37.779157629,"POINT (-122.50949695000003 37.779157629)"
"792",959,"Junipero Serra Elementary","625 Holly Park Cir",94110,"Own",16,"School District (Sfusd)",34200,-122.421511537,37.736840529,"POINT (-122.42151153700001 37.736840529000006)"
"793",1824,"Visitacion Valley Elementary","55 Schwerin St",94134,"Own",16,"School District (Sfusd)",51400,-122.410274977,37.712525002,"POINT (-122.41027497699997 37.71252500200001)"
"794",137,"Argonne Clubhouse","455 18th Ave",94121,"Own",49,"Recreation And Parks",1000,-122.477666612,37.779586053,"POINT (-122.47766661200001 37.779586053)"
"795",1948,"Pier 50 – Shed D  -  Port’s maintenance facility.","401 Terry A Francois Blvd",94158,"Own",46,"Port",104826,-122.383420892,37.774210697,"POINT (-122.383420892 37.774210697)"
"796",983,"Lafayette Park Bathrooms","1925 Gough St",94115,"Own",49,"Recreation And Parks",592,-122.42811695,37.791706677,"POINT (-122.42811695 37.79170667699998)"
"797",1935,"Pier 47 WF Albert Seafoods Proc Bldg","The Embarcadero",94133,"Own",46,"Port",6525,-122.418529639,37.808530178,"POINT (-122.41852963899998 37.80853017800001)"
"798",1964,"Pier 70 - Pier 68 - Beth Street Warehouse Bldg. #30","590 20TH ST",94107,"Own",46,"Port",4686,-122.385952312,37.762030099,"POINT (-122.38595231199997 37.762030099000015)"
"799",1105,"Midtown Terrace Clubhouse","210 Olympia Way",94131,"Own",49,"Recreation And Parks",2176,-122.455851299,37.751588552,"POINT (-122.45585129900002 37.75158855199999)"
"800",1649,"Stern Grove - stage deck","2899 19TH AVE",94132,"Own",49,"Recreation And Parks",3680,-122.479262979,37.736145532,"POINT (-122.479262979 37.73614553200002)"
"801",1740,"Taraval Station","2345 24th Ave",94116,"Own",45,"Police Department",18070,-122.481460767,37.743733794,"POINT (-122.48146076699999 37.74373379399998)"
"802",485,"City Hall","1 Dr Carlton B Goodlett Pl",94102,"Own",63,"Gsa - Real Estate Division",516484,-122.419225975,37.779275119,"POINT (-122.41922597500002 37.779275118999976)"
"803",1939,"Pier 49 - Fishermans Grotto No. 9 (Wharf J-1)","2847 Taylor St",94133,"Own",46,"Port",18796,-122.416140367,37.808930128,"POINT (-122.41614036700003 37.808930127999986)"
"804",3014,"Rossi Community Pool","600 Arguello Blvd",94118,"Own",49,"Recreation And Parks",12900,-122.45820437,37.779060825,"POINT (-122.45820436999998 37.77906082499999)"
"805",727,"Fire Station #44","1298 Girard St",94134,"Own",38,"Fire Department",8450,-122.400433639,37.716620536,"POINT (-122.40043363900003 37.71662053599999)"
"806",944,"John McLaren CDC","2055 Sunnydale Ave",94134,"Own",16,"School District (Sfusd)",57885,-122.423185598,37.713651111,"POINT (-122.42318559799998 37.71365111099999)"
"807",1122,"Mission Dolores Park Clubhouse","646 Dolores St",94110,"Own",49,"Recreation And Parks",2100,-122.426868025,37.759575924,"POINT (-122.42686802499998 37.75957592399999)"
"808",874,"Hall of Justice (HOJ)","850 Bryant St",94103,"Own",63,"Gsa - Real Estate Division",615241,-122.404328301,37.774988899,"POINT (-122.40432830100002 37.77498889899999)"
"809",1110,"Miraloma Elementary","175 Omar Way",94127,"Own",16,"School District (Sfusd)",51900,-122.450137002,37.739125702,"POINT (-122.45013700200002 37.739125702000024)"
"810",2042,"Laguna Honda - Generator Building","375 Laguna Honda Blvd",94116,"Own",72,"Public Health",1554,-122.456602284,37.748625343,"POINT (-122.45660228399998 37.748625343000015)"
"811",1345,"Wholesale Produce Market - North Bldg L","2020 Jerrold Ave",94124,"Own",63,"Gsa - Real Estate Division",41800,-122.397245335,37.743860253,"POINT (-122.39724533499998 37.74386025299998)"
"812",483,"City Distribution Division","2000 Newcomb Ave",94124,"Own",47,"Public Utilities Commission",67500,-122.395104892,37.738507688,"POINT (-122.395104892 37.73850768800003)"
"813",551,"Cow Hollow Clubhouse","1 Miley St",94123,"Own",49,"Recreation And Parks",675,-122.444738169,37.797410379,"POINT (-122.444738169 37.797410378999984)"
"814",2015,"Pier 80 - Terminal Office","271 Cesar Chavez St",94124,"Own",46,"Port",3552,-122.381395615,37.748940176,"POINT (-122.38139561499997 37.74894017600002)"
"815",1997,"Pier 70 - SWL 349 - Beth Street Washroom & Locker, Bldg. #25","420 22nd St",94107,"Own",46,"Port",1490,-122.38300092,37.760392021,"POINT (-122.38300091999997 37.76039202099997)"
"816",1316,"Polo Field North Training Qtrs","1451 John F Kennedy Dr",94117,"Own",49,"Recreation And Parks",700,-122.495287737,37.768864241,"POINT (-122.49528773700001 37.76886424100002)"
"817",688,"Fire Division of Training  - Treasure Island","600 Avenue M",94130,"Own",38,"Fire Department",5040,-122.36705182,37.827059326,"POINT (-122.36705181999997 37.82705932599998)"
"818",1323,"Portsmouth Square Bathrooms","733 Kearny St",94111,"Own",49,"Recreation And Parks",636,-122.405403348,37.794808521,"POINT (-122.405403348 37.79480852099999)"
"819",585,"Dianne Feinstein Elementary","2550 25th Ave",94116,"Own",16,"School District (Sfusd)",62087,-122.481366399,37.739685845,"POINT (-122.48136639900002 37.739685845)"
"820",1113,"Mission Bay Library","960 04th St",94158,"Own",48,"Public Library",8500,-122.393097384,37.775369728,"POINT (-122.39309738399999 37.77536972799999)"
"821",2031,"14th AVE./QUINTARA SFMTA Operator Bathroom","14th Ave & Quintara St",94116,"Own",42,"Municipal Transportation Agency",2640,-122.470827343,37.748700681,"POINT (-122.470827343 37.748700681)"
"822",116,"Alta Plaza Bathrooms","2599 Jackson St",94115,"Own",49,"Recreation And Parks",432,-122.438161916,37.79123938,"POINT (-122.43816191600001 37.79123937999998)"
"823",412,"Cayuga Clubhouse","301 Naglee Ave",94117,"Own",49,"Recreation And Parks",900,-122.449812708,37.714212002,"POINT (-122.44981270800002 37.71421200200001)"
"824",1590,"Shorey Childrens Center","1030 Oakdale Ave",94124,"Own",77,"Public Works",9700,-122.380080623,37.729034657,"POINT (-122.38008062300003 37.729034657)"
"825",1412,"Rochambeau Clubhouse","250 25th Ave",94121,"Own",49,"Recreation And Parks",1482,-122.484566489,37.784986852,"POINT (-122.48456648899997 37.784986851999975)"
"826",15,"Cesar Chavez Elementary","825 Shotwell St",94110,"Own",16,"School District (Sfusd)",49100,-122.415092068,37.75489898,"POINT (-122.41509206799998 37.75489898000001)"
"827",1872,"Women's Resource Center","930 Bryant St",94103,"Own",15,"Sheriff",5920,-122.40558518,37.773871759,"POINT (-122.40558518 37.773871758999974)"
"828",1442,"SAN JOSE SUBSTATION","2200 San Jose Ave",94112,"Own",42,"Municipal Transportation Agency",4000,-122.445631231,37.722282414,"POINT (-122.445631231 37.722282414000006)"
"829",23,"1960 | Pier 96","Pier 96",94124,"Own",46,"Port",256361,-122.369804589,37.740134577,"POINT (-122.36980458900001 37.74013457699999)"
"830",1839,"Washington Square Bathrooms","600 Columbus Ave",94133,"Own",49,"Recreation And Parks",292,-122.410541631,37.80096862,"POINT (-122.410541631 37.80096861999999)"
"831",1929,"Pier 47 - Guardinos Storage Bldg","The Embarcadero",94133,"Own",46,"Port",768,-122.418529639,37.808530178,"POINT (-122.41852963899998 37.80853017800001)"
"832",864,"Herz Clubhouse","1700 Visitacion Ave",94134,"Own",49,"Recreation And Parks",12125,-122.416356525,37.713793184,"POINT (-122.41635652500003 37.713793184)"
"833",1074,"Mccoppin Square Clubhouse","2354 24th Ave",94116,"Own",49,"Recreation And Parks",2000,-122.480758867,37.743538362,"POINT (-122.48075886700002 37.74353836199998)"
"834",1060,"Mariposa Pump Station","815 Terry A Francois St",94158,"Own",47,"Public Utilities Commission",850,-122.387445845,37.764318002,"POINT (-122.387445845 37.76431800199998)"
"835",1288,"Pier 26.5 - Bulkhead","The Embarcadero",94105,"Own",46,"Port",27300,-122.387380589,37.788439134,"POINT (-122.38738058899997 37.78843913399999)"
"836",1117,"Mission Branch Library","300 Bartlett St",94110,"Own",48,"Public Library",10479,-122.419826464,37.751968966,"POINT (-122.41982646399998 37.75196896599999)"
"837",1719,"SWL 303 - Franceschis Restaurant","498 Jefferson St",94133,"Own",46,"Port",3712,-122.420116284,37.808053161,"POINT (-122.42011628400002 37.808053160999975)"
"838",3155,"Wawona Clubhouse","899 Wawona St",94116,"Own",49,"Recreation And Parks",1830,-122.476262108,37.73717931,"POINT (-122.47626210800001 37.73717930999999)"
"839",1143,"Moscone Maintenance Facility","1800 Chestnut St",94123,"Own",49,"Recreation And Parks",1200,-122.432855889,37.801560952,"POINT (-122.432855889 37.80156095199999)"
"840",1185,"Noe Valley Courts Bathrooms","780 Douglass St",94114,"Own",49,"Recreation And Parks",390,-122.439201967,37.751480566,"POINT (-122.43920196699997 37.751480566)"
"841",906,"J. P. Murphy Clubhouse","1960 09th Ave",94116,"Own",49,"Recreation And Parks",1820,-122.465246474,37.751574335,"POINT (-122.46524647400003 37.75157433499999)"
"842",1279,"Pier 22 1/2 - Maintenance / Recreation","The Embarcadero",94105,"Own",46,"Port",1974,-122.388244705,37.790409861,"POINT (-122.38824470499998 37.790409861)"
"843",1293,"Pier 96 - Entry Canopy","1000 Amador St",94124,"Own",46,"Port",10000,-122.378147776,37.743549462,"POINT (-122.37814777599999 37.743549461999976)"
"844",123,"Anglers Lodge","1232 John F Kennedy Dr",94117,"Own",49,"Recreation And Parks",2196,-122.496615212,37.768009218,"POINT (-122.496615212 37.768009217999975)"
"845",815,"Golden Gate Valley Branch Library","1801 Green St",94123,"Own",48,"Public Library",7432,-122.429023471,37.79678883,"POINT (-122.429023471 37.796788830000025)"
"846",1402,"Rhododendron Dell Maintenance Shed","364 John F Kennedy Dr",94117,"Own",49,"Recreation And Parks",192,-122.464429748,37.772018799,"POINT (-122.46442974799999 37.77201879900002)"
"847",180,"Bernal Heights Rec Center","500 Moultrie St",94110,"Own",49,"Recreation And Parks",6224,-122.416099809,37.738212725,"POINT (-122.416099809 37.73821272499998)"
"848",844,"Harding Golf Cart House","99 Harding Rd",94132,"Own",49,"Recreation And Parks",4920,-122.492826801,37.726318198,"POINT (-122.49282680099998 37.726318198)"
"849",639,"Tule Elk Park CDC","2110 Greenwich St",94123,"Own",16,"School District (Sfusd)",32000,-122.434561482,37.799363271,"POINT (-122.43456148199999 37.799363271000004)"
"850",1907,"Pier 33 - Bulkhead/Shed Building","1398 The Embarcadero",94133,"Own",46,"Port",112840,-122.404648515,37.807697669,"POINT (-122.40464851500002 37.80769766899999)"
